# 2014 04 13 07 52 47 12.460000 -86.470000 14.000000 1.600000 0.000000 0.000000 0.000000 209 
TBHS 7.73 1 P
TBHY 7.22 1 P
TBMR 7.52 1 P
TBTN 7.36 1 P
ACON 21.77 1 P
CNGN 4.87 1 P
CRIN 10.71 1 P
CSGN 19.34 1 P
ESPN 32.39 1 P
HERN 7.32 1 P
MASN 11.35 1 P
MATN 12.45 1 P
MGAN 7.3 1 P
NANN 11.11 1 P
# 2014 04 13 07 57 47 12.430000 -86.510000 4.000000 3.600000 0.000000 0.000000 0.000000 210 
TBHS 7.58 1 P
TBHY 7.01 1 P
TBMR 7.32 1 P
TBTN 7.18 1 P
ACON 23.03 1 P
CNGN 4.3 1 P
CRIN 10.77 1 P
CSGN 19.89 1 P
ESPN 33.77 1 P
HERN 7.15 1 P
MASN 11.95 1 P
MATN 13.78 1 P
MGAN 7.51 1 P
NANN 11.54 1 P
# 2014 04 13 08 20 56 12.380000 -86.460000 6.000000 2.100000 0.000000 0.000000 0.000000 211 
TBHS 8.62 1 P
TBHY 8.05 1 P
TBMR 8.34 1 P
TBTN 8.22 1 P
ACON 21.96 1 P
CNGN 5.33 1 P
CRIN 11.73 1 P
CSGN 20.63 1 P
ESPN 32.83 1 P
HERN 8.19 1 P
MASN 10.66 1 P
MATN 13.61 1 P
MGAN 6.2 1 P
NANN 10.25 1 P
# 2014 04 13 08 21 26 12.380000 -86.460000 6.000000 2.400000 0.000000 0.000000 0.000000 212 
# 2014 04 13 08 30 11 12.340000 -86.530000 2.000000 2.400000 0.000000 0.000000 0.000000 213 
TBHS 8.4 1 P
TBHY 7.83 1 P
TBMR 8.06 1 P
TBTN 8.01 1 P
ACON 23.19 1 P
CNGN 5.07 1 P
CRIN 11.5 1 P
CSGN 20.56 1 P
ESPN 34.21 1 P
HERN 7.99 1 P
MASN 11.51 1 P
MATN 15.22 1 P
MGAN 6.93 1 P
NANN 10.84 1 P
# 2014 04 13 08 32 35 12.380000 -86.480000 6.000000 2.400000 0.000000 0.000000 0.000000 214 
TBHS 8.34 1 P
TBHY 7.77 1 P
TBMR 8.05 1 P
TBTN 7.94 1 P
ACON 22.21 1 P
CNGN 5.03 1 P
CRIN 11.46 1 P
CSGN 20.39 1 P
ESPN 33.09 1 P
HERN 7.91 1 P
MASN 10.9 1 P
MATN 13.83 1 P
MGAN 6.43 1 P
NANN 10.45 1 P
# 2014 04 13 09 20 43 12.370000 -86.440000 7.000000 1.700000 0.000000 0.000000 0.000000 215 
TBHS 8.95 1 P
TBHY 8.39 1 P
TBMR 8.67 1 P
TBTN 8.55 1 P
ACON 21.57 1 P
CNGN 5.7 1 P
CRIN 12.04 1 P
CSGN 20.84 1 P
ESPN 32.46 1 P
HERN 8.53 1 P
MASN 10.26 1 P
MATN 13.46 1 P
MGAN 5.84 1 P
NANN 9.88 1 P
# 2014 04 13 09 25 50 12.330000 -86.540000 11.000000 1.800000 0.000000 0.000000 0.000000 216 
TBHS 7.96 1 P
TBHY 7.43 1 P
TBMR 7.63 1 P
TBTN 7.59 1 P
ACON 22.34 1 P
CNGN 4.82 1 P
CRIN 10.91 1 P
CSGN 19.63 1 P
ESPN 33.4 1 P
HERN 7.58 1 P
MASN 10.99 1 P
MATN 14.72 1 P
MGAN 6.62 1 P
NANN 10.31 1 P
# 2014 04 13 09 31 11 12.230000 -86.390000 13.000000 2.100000 0.000000 0.000000 0.000000 217 
TBHS 10.76 1 P
TBHY 10.23 1 P
TBMR 10.44 1 P
TBTN 10.39 1 P
ACON 19.91 1 P
CNGN 7.67 1 P
CRIN 13.59 1 P
CSGN 21.9 1 P
ESPN 31.19 1 P
HERN 10.38 1 P
MASN 8.1 1 P
MATN 14.4 1 P
MGAN 3.86 1 P
NANN 7.47 1 P
# 2014 04 13 09 54 04 12.370000 -86.490000 5.000000 2.700000 0.000000 0.000000 0.000000 218 
TBHS 8.34 1 P
TBHY 7.77 1 P
TBMR 8.04 1 P
TBTN 7.94 1 P
ACON 22.4 1 P
CNGN 5.01 1 P
CRIN 11.47 1 P
CSGN 20.44 1 P
ESPN 33.32 1 P
HERN 7.92 1 P
MASN 10.98 1 P
MATN 14.12 1 P
MGAN 6.47 1 P
NANN 10.48 1 P
# 2014 04 13 10 17 27 12.050000 -86.710000 0.000000 2.100000 0.000000 0.000000 0.000000 219 
TBHS 11.67 1 P
TBHY 11.25 1 P
TBMR 11.23 1 P
TBTN 11.4 1 P
ACON 25.47 1 P
CNGN 9.37 1 P
CRIN 13.87 1 P
CSGN 21.87 1 P
ESPN 37.16 1 P
HERN 11.44 1 P
MASN 13.26 1 P
MATN 20.77 1 P
MGAN 9.59 1 P
NANN 11.69 1 P
# 2014 04 13 10 29 34 12.350000 -86.460000 6.000000 2.400000 0.000000 0.000000 0.000000 220 
TBHS 8.89 1 P
TBHY 8.33 1 P
TBMR 8.59 1 P
TBTN 8.5 1 P
ACON 21.83 1 P
CNGN 5.59 1 P
CRIN 11.98 1 P
CSGN 20.84 1 P
ESPN 32.8 1 P
HERN 8.47 1 P
MASN 10.34 1 P
MATN 13.96 1 P
MGAN 5.83 1 P
NANN 9.86 1 P
# 2014 04 13 10 52 02 12.220000 -86.350000 5.000000 1.700000 0.000000 0.000000 0.000000 221 
TBHS 11.68 1 P
TBHY 11.14 1 P
TBMR 11.37 1 P
TBTN 11.3 1 P
ACON 20.03 1 P
CNGN 8.44 1 P
CRIN 14.64 1 P
CSGN 23.13 1 P
ESPN 31.36 1 P
HERN 11.28 1 P
MASN 7.63 1 P
MATN 14.7 1 P
MGAN 2.96 1 P
NANN 7.04 1 P
# 2014 04 13 12 10 24 12.380000 -86.440000 6.000000 2.200000 0.000000 0.000000 0.000000 222 
TBHS 8.9 1 P
TBHY 8.34 1 P
TBMR 8.63 1 P
TBTN 8.5 1 P
ACON 21.7 1 P
CNGN 5.63 1 P
CRIN 12.01 1 P
CSGN 20.87 1 P
ESPN 32.56 1 P
HERN 8.47 1 P
MASN 10.41 1 P
MATN 13.4 1 P
MGAN 5.98 1 P
NANN 10.06 1 P
# 2014 04 13 12 11 00 12.330000 -86.470000 3.000000 1.400000 0.000000 0.000000 0.000000 223 
# 2014 04 13 13 50 42 12.380000 -86.510000 6.000000 2.600000 0.000000 0.000000 0.000000 224 
TBHS 7.92 1 P
TBHY 7.36 1 P
TBMR 7.62 1 P
TBTN 7.52 1 P
ACON 22.59 1 P
CNGN 4.6 1 P
CRIN 11.04 1 P
CSGN 20.03 1 P
ESPN 33.49 1 P
HERN 7.5 1 P
MASN 11.28 1 P
MATN 14.16 1 P
MGAN 6.79 1 P
NANN 10.76 1 P
# 2014 04 13 14 46 27 12.400000 -86.520000 5.000000 3.600000 0.000000 0.000000 0.000000 225 
TBHS 7.64 1 P
TBHY 7.07 1 P
TBMR 7.34 1 P
TBTN 7.24 1 P
ACON 22.91 1 P
CNGN 4.31 1 P
CRIN 10.79 1 P
CSGN 19.87 1 P
ESPN 33.75 1 P
HERN 7.21 1 P
MASN 11.67 1 P
MATN 14.13 1 P
MGAN 7.19 1 P
NANN 11.18 1 P
# 2014 04 13 14 51 52 12.400000 -86.510000 5.000000 2.400000 0.000000 0.000000 0.000000 226 
TBHS 7.78 1 P
TBHY 7.21 1 P
TBMR 7.49 1 P
TBTN 7.37 1 P
ACON 22.78 1 P
CNGN 4.46 1 P
CRIN 10.93 1 P
ESPN 33.62 1 P
HERN 7.35 1 P
MASN 11.55 1 P
MATN 14.01 1 P
MGAN 7.07 1 P
NANN 11.07 1 P
# 2014 04 13 15 54 07 12.430000 -86.440000 1.000000 1.900000 0.000000 0.000000 0.000000 227 
TBHS 9 1 P
TBHY 8.44 1 P
TBMR 8.76 1 P
TBTN 8.6 1 P
ACON 22.62 1 P
CNGN 5.8 1 P
CRIN 12.18 1 P
ESPN 33.32 1 P
HERN 8.56 1 P
MASN 11.52 1 P
MATN 13.38 1 P
MGAN 7.15 1 P
NANN 11.28 1 P
# 2014 04 13 17 41 35 12.250000 -86.350000 8.000000 3.100000 0.000000 0.000000 0.000000 228 
TBHS 11.23 1 P
TBHY 10.68 1 P
TBMR 10.93 1 P
TBTN 10.84 1 P
ACON 19.85 1 P
CNGN 8.02 1 P
CRIN 14.17 1 P
ESPN 31.08 1 P
HERN 10.83 1 P
MASN 7.82 1 P
MATN 14.1 1 P
MGAN 3.33 1 P
NANN 7.36 1 P
# 2014 04 13 17 54 30 12.370000 -86.530000 12.000000 1.800000 0.000000 0.000000 0.000000 229 
TBHS 7.65 1 P
TBHY 7.11 1 P
TBMR 7.35 1 P
TBTN 7.27 1 P
ACON 22.28 1 P
CNGN 4.53 1 P
CRIN 10.63 1 P
ESPN 33.22 1 P
HERN 7.26 1 P
MASN 11.18 1 P
MATN 14.14 1 P
MGAN 6.87 1 P
NANN 10.62 1 P
# 2014 04 13 18 26 50 12.260000 -86.360000 4.000000 1.600000 0.000000 0.000000 0.000000 230 
TBHS 11.23 1 P
TBHY 10.68 1 P
TBMR 10.93 1 P
TBTN 10.84 1 P
ACON 20.4 1 P
CNGN 7.96 1 P
CRIN 14.25 1 P
ESPN 31.62 1 P
HERN 10.82 1 P
MASN 8.23 1 P
MATN 14.33 1 P
MGAN 3.61 1 P
NANN 7.76 1 P
# 2014 04 13 18 55 02 12.270000 -86.370000 7.000000 2.200000 0.000000 0.000000 0.000000 231 
TBHS 10.82 1 P
TBHY 10.27 1 P
TBMR 10.52 1 P
TBTN 10.43 1 P
ACON 20.27 1 P
CNGN 7.58 1 P
CRIN 13.81 1 P
ESPN 31.44 1 P
HERN 10.41 1 P
MASN 8.32 1 P
MATN 14.06 1 P
MGAN 3.78 1 P
NANN 7.85 1 P
# 2014 04 13 20 42 14 12.360000 -86.570000 2.000000 1.800000 0.000000 0.000000 0.000000 232 
TBHS 7.67 1 P
TBHY 7.11 1 P
TBMR 7.32 1 P
TBTN 7.28 1 P
ACON 23.78 1 P
CNGN 4.32 1 P
CRIN 10.78 1 P
ESPN 34.76 1 P
HERN 7.27 1 P
MASN 12.23 1 P
MATN 15.45 1 P
MGAN 7.68 1 P
NANN 11.54 1 P
# 2014 04 13 22 38 07 12.180000 -86.280000 8.000000 2.200000 0.000000 0.000000 0.000000 233 
TBHS 12.78 1 P
TBHY 12.25 1 P
TBMR 12.48 1 P
TBTN 12.41 1 P
ACON 18.69 1 P
CNGN 9.64 1 P
CRIN 15.65 1 P
ESPN 30.14 1 P
HERN 12.39 1 P
MASN 6.2 1 P
MATN 14.56 1 P
MGAN 1.88 1 P
NANN 5.73 1 P
# 2014 04 13 23 36 50 12.410000 -86.500000 6.000000 3.100000 0.000000 0.000000 0.000000 234 
TBHS 7.78 1 P
TBHY 7.22 1 P
TBMR 7.51 1 P
TBTN 7.38 1 P
ACON 22.59 1 P
CNGN 4.5 1 P
CRIN 10.93 1 P
ESPN 33.39 1 P
HERN 7.35 1 P
MASN 11.47 1 P
MATN 13.72 1 P
MGAN 7.03 1 P
NANN 11.04 1 P
# 2014 04 13 23 40 11 12.340000 -86.420000 4.000000 3.600000 0.000000 0.000000 0.000000 235 
TBHS 9.66 1 P
TBHY 9.1 1 P
TBMR 9.37 1 P
TBTN 9.26 1 P
ACON 21.5 1 P
CNGN 6.36 1 P
CRIN 12.76 1 P
ESPN 32.47 1 P
HERN 9.24 1 P
MASN 9.86 1 P
MATN 13.84 1 P
MGAN 5.34 1 P
NANN 9.45 1 P
# 2014 04 13 23 50 20 12.380000 -86.460000 5.000000 3.500000 0.000000 0.000000 0.000000 236 
TBHS 8.66 1 P
TBHY 8.1 1 P
TBMR 8.38 1 P
TBTN 8.26 1 P
ACON 22.06 1 P
CNGN 5.37 1 P
CRIN 11.8 1 P
ESPN 32.93 1 P
HERN 8.24 1 P
MASN 10.71 1 P
MATN 13.69 1 P
MGAN 6.24 1 P
NANN 10.31 1 P
# 2014 04 14 00 04 51 12.380000 -86.450000 4.000000 3.400000 0.000000 0.000000 0.000000 237 
TBHS 8.88 1 P
TBHY 8.31 1 P
TBMR 8.6 1 P
TBTN 8.48 1 P
ACON 22.05 1 P
CNGN 5.58 1 P
CRIN 12.02 1 P
ESPN 32.91 1 P
HERN 8.45 1 P
MASN 10.67 1 P
MATN 13.67 1 P
MGAN 6.2 1 P
NANN 10.29 1 P
# 2014 04 14 00 27 46 12.250000 -86.390000 6.000000 2.600000 0.000000 0.000000 0.000000 238 
TBHS 10.81 1 P
TBHY 10.26 1 P
TBMR 10.49 1 P
TBTN 10.43 1 P
ACON 20.56 1 P
CNGN 7.56 1 P
CRIN 13.79 1 P
ESPN 31.8 1 P
HERN 10.41 1 P
MASN 8.42 1 P
MATN 14.55 1 P
MGAN 3.8 1 P
NANN 7.82 1 P
# 2014 04 14 01 14 52 12.380000 -86.470000 6.000000 2.700000 0.000000 0.000000 0.000000 239 
TBHS 8.48 1 P
TBHY 7.91 1 P
TBMR 8.19 1 P
TBTN 8.08 1 P
ACON 22.08 1 P
CNGN 5.18 1 P
CRIN 11.59 1 P
ESPN 32.96 1 P
HERN 8.05 1 P
MASN 10.78 1 P
MATN 13.72 1 P
MGAN 6.31 1 P
NANN 10.35 1 P
# 2014 04 14 01 25 47 12.350000 -86.470000 12.000000 2.500000 0.000000 0.000000 0.000000 240 
TBHS 8.61 1 P
TBHY 8.07 1 P
TBMR 8.32 1 P
TBTN 8.23 1 P
ACON 21.44 1 P
CNGN 5.47 1 P
CRIN 11.58 1 P
ESPN 32.4 1 P
HERN 8.21 1 P
MASN 10.25 1 P
MATN 13.73 1 P
MGAN 5.94 1 P
NANN 9.76 1 P
# 2014 04 14 03 21 23 12.390000 -86.500000 16.000000 1.500000 0.000000 0.000000 0.000000 241 
TBHS 7.85 1 P
TBHY 7.33 1 P
TBMR 7.58 1 P
TBTN 7.48 1 P
ACON 21.69 1 P
CNGN 4.91 1 P
CRIN 10.75 1 P
ESPN 32.55 1 P
HERN 7.46 1 P
MASN 10.9 1 P
MATN 13.43 1 P
MGAN 6.78 1 P
NANN 10.46 1 P
# 2014 04 14 03 30 06 12.340000 -86.440000 9.000000 1.700000 0.000000 0.000000 0.000000 242 
TBHS 9.16 1 P
TBHY 8.61 1 P
TBMR 8.87 1 P
TBTN 8.77 1 P
ACON 21.26 1 P
CNGN 5.94 1 P
CRIN 12.18 1 P
ESPN 32.24 1 P
HERN 8.75 1 P
MASN 9.87 1 P
MATN 13.7 1 P
MGAN 5.45 1 P
NANN 9.42 1 P
# 2014 04 14 03 43 24 12.340000 -86.470000 16.000000 1.900000 0.000000 0.000000 0.000000 243 
TBHS 8.67 1 P
TBHY 8.15 1 P
TBMR 8.38 1 P
TBTN 8.3 1 P
ACON 21.1 1 P
CNGN 5.68 1 P
CRIN 11.54 1 P
ESPN 32.1 1 P
HERN 8.29 1 P
MASN 10.07 1 P
MATN 13.66 1 P
MGAN 5.93 1 P
NANN 9.57 1 P
# 2014 04 14 04 05 43 12.410000 -86.500000 6.000000 2.100000 0.000000 0.000000 0.000000 244 
TBHS 7.78 1 P
TBHY 7.22 1 P
TBMR 7.51 1 P
TBTN 7.38 1 P
ACON 22.59 1 P
CNGN 4.5 1 P
CRIN 10.93 1 P
ESPN 33.39 1 P
HERN 7.35 1 P
MASN 11.47 1 P
MATN 13.72 1 P
MGAN 7.03 1 P
NANN 11.04 1 P
# 2014 04 14 04 12 24 12.270000 -86.350000 6.000000 4.400000 0.000000 0.000000 0.000000 245 
TBHS 11.13 1 P
TBHY 10.58 1 P
TBMR 10.83 1 P
TBTN 10.74 1 P
ACON 20.1 1 P
CNGN 7.88 1 P
CRIN 14.13 1 P
ESPN 31.27 1 P
HERN 10.72 1 P
MASN 8.09 1 P
MATN 13.95 1 P
MGAN 3.55 1 P
NANN 7.69 1 P
# 2014 04 14 04 24 44 12.250000 -86.340000 12.000000 1.600000 0.000000 0.000000 0.000000 246 
TBHS 11.2 1 P
TBHY 10.67 1 P
TBMR 10.91 1 P
TBTN 10.82 1 P
ACON 19.4 1 P
CNGN 8.09 1 P
CRIN 14.08 1 P
ESPN 30.6 1 P
HERN 10.81 1 P
MASN 7.64 1 P
MATN 13.8 1 P
MGAN 3.44 1 P
NANN 7.23 1 P
# 2014 04 14 04 38 14 12.260000 -86.360000 4.000000 1.500000 0.000000 0.000000 0.000000 247 
TBHS 11.23 1 P
TBHY 10.68 1 P
TBMR 10.93 1 P
TBTN 10.84 1 P
ACON 20.4 1 P
CNGN 7.96 1 P
CRIN 14.25 1 P
ESPN 31.62 1 P
HERN 10.82 1 P
MASN 8.23 1 P
MATN 14.33 1 P
MGAN 3.61 1 P
NANN 7.76 1 P
# 2014 04 14 05 07 03 12.240000 -86.340000 5.000000 5.600000 0.000000 0.000000 0.000000 248 
TBHS 11.61 1 P
TBHY 11.06 1 P
TBMR 11.3 1 P
TBTN 11.22 1 P
ACON 19.96 1 P
CNGN 8.36 1 P
CRIN 14.59 1 P
ESPN 31.23 1 P
HERN 11.2 1 P
MASN 7.69 1 P
MATN 14.35 1 P
MGAN 3.06 1 P
NANN 7.22 1 P
# 2014 04 14 05 11 06 12.230000 -86.360000 4.000000 3.100000 0.000000 0.000000 0.000000 249 
TBHS 11.54 1 P
TBHY 10.99 1 P
TBMR 11.22 1 P
TBTN 11.15 1 P
ACON 20.31 1 P
CNGN 8.28 1 P
CRIN 14.52 1 P
ESPN 31.61 1 P
HERN 11.13 1 P
MASN 7.93 1 P
MATN 14.74 1 P
MGAN 3.24 1 P
NANN 7.35 1 P
# 2014 04 14 05 17 07 12.260000 -86.340000 6.000000 2.900000 0.000000 0.000000 0.000000 250 
TBHS 11.35 1 P
TBHY 10.81 1 P
TBMR 11.06 1 P
TBTN 10.97 1 P
ACON 19.93 1 P
CNGN 8.12 1 P
CRIN 14.34 1 P
ESPN 31.13 1 P
HERN 10.95 1 P
MASN 7.85 1 P
MATN 14.01 1 P
MGAN 3.31 1 P
NANN 7.46 1 P
# 2014 04 14 05 25 27 12.240000 -86.360000 8.000000 3.100000 0.000000 0.000000 0.000000 251 
TBHS 11.2 1 P
TBHY 10.66 1 P
TBMR 10.89 1 P
TBTN 10.82 1 P
ACON 19.95 1 P
CNGN 8 1 P
CRIN 14.14 1 P
ESPN 31.21 1 P
HERN 10.8 1 P
MASN 7.86 1 P
MATN 14.31 1 P
MGAN 3.33 1 P
NANN 7.33 1 P
# 2014 04 14 05 39 43 12.250000 -86.350000 5.000000 3.000000 0.000000 0.000000 0.000000 252 
TBHS 11.38 1 P
TBHY 10.83 1 P
TBMR 11.08 1 P
TBTN 10.99 1 P
ACON 20.12 1 P
CNGN 8.13 1 P
CRIN 14.37 1 P
ESPN 31.37 1 P
HERN 10.97 1 P
MASN 7.92 1 P
MATN 14.29 1 P
MGAN 3.31 1 P
NANN 7.46 1 P
# 2014 04 14 05 43 53 12.250000 -86.360000 2.000000 4.600000 0.000000 0.000000 0.000000 253 
TBHS 11.55 1 P
TBHY 10.99 1 P
TBMR 11.24 1 P
TBTN 11.16 1 P
ACON 20.63 1 P
CNGN 8.27 1 P
CRIN 14.57 1 P
ESPN 31.89 1 P
HERN 11.14 1 P
MASN 8.33 1 P
MATN 14.7 1 P
MGAN 3.61 1 P
NANN 7.82 1 P
# 2014 04 14 05 49 29 12.250000 -86.360000 6.000000 3.500000 0.000000 0.000000 0.000000 254 
TBHS 11.19 1 P
TBHY 10.64 1 P
TBMR 10.88 1 P
TBTN 10.81 1 P
ACON 20.16 1 P
CNGN 7.95 1 P
CRIN 14.17 1 P
ESPN 31.4 1 P
HERN 10.79 1 P
MASN 8.01 1 P
MATN 14.3 1 P
MGAN 3.41 1 P
NANN 7.51 1 P
# 2014 04 14 05 54 58 12.240000 -86.340000 12.000000 2.500000 0.000000 0.000000 0.000000 255 
TBHS 11.29 1 P
TBHY 10.76 1 P
TBMR 11 1 P
TBTN 10.92 1 P
ACON 19.36 1 P
CNGN 8.18 1 P
CRIN 14.16 1 P
ESPN 30.6 1 P
HERN 10.9 1 P
MASN 7.54 1 P
MATN 13.93 1 P
MGAN 3.33 1 P
NANN 7.1 1 P
# 2014 04 14 05 59 25 12.260000 -86.330000 6.000000 3.500000 0.000000 0.000000 0.000000 256 
TBHS 11.48 1 P
TBHY 10.94 1 P
TBTN 11.1 1 P
ACON 19.79 1 P
CNGN 8.25 1 P
CRIN 14.47 1 P
ESPN 31 1 P
HERN 11.08 1 P
MASN 7.72 1 P
MATN 13.93 1 P
MGAN 3.2 1 P
NANN 7.37 1 P
# 2014 04 14 06 05 24 12.210000 -86.370000 11.000000 3.500000 0.000000 0.000000 0.000000 257 
TBHS 11.26 1 P
TBHY 10.73 1 P
TBMR 10.95 1 P
TBTN 10.89 1 P
ACON 19.75 1 P
CNGN 8.14 1 P
CRIN 14.12 1 P
ESPN 31.08 1 P
HERN 10.88 1 P
MASN 7.68 1 P
MATN 14.6 1 P
MGAN 3.34 1 P
NANN 7.02 1 P
# 2014 04 14 06 12 31 12.220000 -86.360000 7.000000 4.000000 0.000000 0.000000 0.000000 258 
TBHS 11.45 1 P
TBHY 10.91 1 P
TBMR 11.13 1 P
TBTN 11.07 1 P
ACON 19.98 1 P
CNGN 8.24 1 P
CRIN 14.38 1 P
ESPN 31.3 1 P
HERN 11.05 1 P
MASN 7.69 1 P
MATN 14.64 1 P
MGAN 3.1 1 P
NANN 7.08 1 P
# 2014 04 14 06 20 56 12.250000 -86.340000 7.000000 3.500000 0.000000 0.000000 0.000000 259 
TBHS 11.4 1 P
TBHY 10.86 1 P
TBMR 11.1 1 P
TBTN 11.02 1 P
ACON 19.8 1 P
CNGN 8.18 1 P
CRIN 14.36 1 P
ESPN 31.04 1 P
HERN 11 1 P
MASN 7.72 1 P
MATN 14.08 1 P
MGAN 3.19 1 P
NANN 7.29 1 P
# 2014 04 14 06 27 24 12.240000 -86.330000 11.000000 2.400000 0.000000 0.000000 0.000000 260 
TBHS 11.45 1 P
TBHY 10.92 1 P
TBMR 11.16 1 P
TBTN 11.08 1 P
ACON 19.31 1 P
CNGN 8.33 1 P
CRIN 14.34 1 P
ESPN 30.55 1 P
HERN 11.06 1 P
MASN 7.42 1 P
MATN 13.91 1 P
MGAN 3.17 1 P
NANN 7.01 1 P
# 2014 04 14 06 31 01 12.220000 -86.360000 16.000000 2.900000 0.000000 0.000000 0.000000 261 
TBHS 11.13 1 P
TBHY 10.62 1 P
TBMR 10.83 1 P
TBTN 10.77 1 P
ACON 19.28 1 P
CNGN 8.12 1 P
CRIN 13.91 1 P
ESPN 30.57 1 P
HERN 10.76 1 P
MASN 7.63 1 P
MATN 14.15 1 P
MGAN 3.7 1 P
NANN 7.07 1 P
# 2014 04 14 06 34 11 12.190000 -86.370000 15.000000 3.000000 0.000000 0.000000 0.000000 262 
TBHS 11.34 1 P
TBHY 10.83 1 P
TBMR 11.03 1 P
TBTN 10.99 1 P
ACON 19.39 1 P
CNGN 8.33 1 P
CRIN 14.1 1 P
ESPN 30.77 1 P
HERN 10.97 1 P
MASN 7.51 1 P
MATN 14.65 1 P
MGAN 3.55 1 P
NANN 6.81 1 P
# 2014 04 14 06 39 02 12.240000 -86.350000 5.000000 2.800000 0.000000 0.000000 0.000000 263 
TBHS 11.48 1 P
TBHY 10.93 1 P
TBMR 11.17 1 P
TBTN 11.09 1 P
ACON 20.09 1 P
CNGN 8.23 1 P
CRIN 14.46 1 P
ESPN 31.36 1 P
HERN 11.08 1 P
MASN 7.82 1 P
MATN 14.43 1 P
MGAN 3.19 1 P
NANN 7.32 1 P
# 2014 04 14 06 44 16 12.260000 -86.360000 7.000000 3.000000 0.000000 0.000000 0.000000 264 
TBHS 11.05 1 P
TBHY 10.5 1 P
TBMR 10.74 1 P
TBTN 10.66 1 P
ACON 20.11 1 P
CNGN 7.82 1 P
CRIN 14.02 1 P
ESPN 31.31 1 P
HERN 10.64 1 P
MASN 8.08 1 P
MATN 14.1 1 P
MGAN 3.54 1 P
NANN 7.62 1 P
# 2014 04 14 06 52 26 12.240000 -86.340000 5.000000 3.200000 0.000000 0.000000 0.000000 265 
TBHS 11.61 1 P
TBHY 11.06 1 P
TBMR 11.3 1 P
TBTN 11.22 1 P
ACON 19.96 1 P
CNGN 8.36 1 P
CRIN 14.59 1 P
ESPN 31.23 1 P
HERN 11.2 1 P
MASN 7.69 1 P
MATN 14.35 1 P
MGAN 3.06 1 P
NANN 7.22 1 P
# 2014 04 14 06 54 30 12.220000 -86.340000 15.000000 2.000000 0.000000 0.000000 0.000000 266 
TBHY 10.87 1 P
TBMR 11.09 1 P
TBTN 11.03 1 P
ACON 19.08 1 P
CNGN 8.36 1 P
CRIN 14.19 1 P
ESPN 30.37 1 P
HERN 11.01 1 P
MASN 7.36 1 P
MATN 14.05 1 P
NANN 6.86 1 P
# 2014 04 14 07 10 05 12.240000 -86.350000 7.000000 3.100000 0.000000 0.000000 0.000000 267 
TBHS 11.37 1 P
TBHY 10.83 1 P
TBMR 11.06 1 P
TBTN 10.99 1 P
ACON 19.91 1 P
CNGN 8.15 1 P
CRIN 14.32 1 P
ESPN 31.17 1 P
HERN 10.97 1 P
MASN 7.75 1 P
MATN 14.29 1 P
MGAN 3.18 1 P
NANN 7.25 1 P
# 2014 04 14 07 16 03 12.430000 -86.500000 2.000000 4.200000 0.000000 0.000000 0.000000 268 
TBHS 7.93 1 P
TBHY 7.36 1 P
TBMR 7.67 1 P
TBTN 7.52 1 P
ACON 23.18 1 P
CNGN 4.65 1 P
CRIN 11.13 1 P
ESPN 33.92 1 P
HERN 7.49 1 P
MASN 12.05 1 P
MATN 13.89 1 P
MGAN 7.6 1 P
NANN 11.66 1 P
# 2014 04 14 07 24 09 12.230000 -86.310000 6.000000 2.000000 0.000000 0.000000 0.000000 269 
TBHS 12.03 1 P
TBHY 11.49 1 P
TBMR 11.73 1 P
TBTN 11.65 1 P
ACON 19.42 1 P
CNGN 8.82 1 P
CRIN 14.98 1 P
ESPN 30.73 1 P
HERN 11.63 1 P
MASN 7.14 1 P
MATN 14.19 1 P
MGAN 2.58 1 P
NANN 6.75 1 P
# 2014 04 14 07 27 46 12.230000 -86.350000 5.000000 2.700000 0.000000 0.000000 0.000000 270 
TBHS 11.58 1 P
TBHY 11.03 1 P
TBMR 11.27 1 P
TBTN 11.2 1 P
ACON 20.06 1 P
CNGN 8.33 1 P
CRIN 14.55 1 P
ESPN 31.36 1 P
HERN 11.18 1 P
MASN 7.72 1 P
MATN 14.57 1 P
MGAN 3.07 1 P
NANN 7.18 1 P
# 2014 04 14 07 36 13 12.250000 -86.340000 6.000000 3.100000 0.000000 0.000000 0.000000 271 
TBHS 11.45 1 P
TBHY 10.9 1 P
TBMR 11.15 1 P
TBTN 11.06 1 P
ACON 19.89 1 P
CNGN 8.22 1 P
CRIN 14.43 1 P
ESPN 31.13 1 P
HERN 11.04 1 P
MASN 7.75 1 P
MATN 14.14 1 P
MGAN 3.17 1 P
NANN 7.32 1 P
# 2014 04 14 07 41 56 12.440000 -86.510000 5.000000 2.600000 0.000000 0.000000 0.000000 272 
TBHS 7.43 1 P
TBHY 6.87 1 P
TBMR 7.17 1 P
TBTN 7.03 1 P
ACON 22.96 1 P
CNGN 4.18 1 P
CRIN 10.62 1 P
ESPN 33.67 1 P
HERN 7 1 P
MASN 11.97 1 P
MATN 13.59 1 P
MGAN 7.57 1 P
NANN 11.59 1 P
# 2014 04 14 07 51 33 12.190000 -86.350000 17.000000 2.500000 0.000000 0.000000 0.000000 273 
TBHS 11.51 1 P
TBHY 11.01 1 P
TBMR 11.21 1 P
TBTN 11.16 1 P
ACON 19 1 P
CNGN 8.55 1 P
CRIN 14.25 1 P
ESPN 30.37 1 P
HERN 11.15 1 P
MASN 7.27 1 P
MATN 14.42 1 P
MGAN 3.54 1 P
NANN 6.64 1 P
# 2014 04 14 07 56 18 12.200000 -86.360000 14.000000 2.200000 0.000000 0.000000 0.000000 274 
TBHS 11.38 1 P
TBHY 10.87 1 P
TBMR 11.07 1 P
TBTN 11.02 1 P
ACON 19.36 1 P
CNGN 8.33 1 P
CRIN 14.17 1 P
ESPN 30.71 1 P
HERN 11.01 1 P
MASN 7.45 1 P
MATN 14.5 1 P
MGAN 3.4 1 P
NANN 6.8 1 P
# 2014 04 14 08 09 57 12.190000 -86.360000 15.000000 2.100000 0.000000 0.000000 0.000000 275 
TBHS 11.45 1 P
TBHY 10.94 1 P
TBMR 11.14 1 P
TBTN 11.1 1 P
ACON 19.26 1 P
CNGN 8.44 1 P
CRIN 14.22 1 P
ESPN 30.64 1 P
HERN 11.09 1 P
MASN 7.38 1 P
MATN 14.58 1 P
MGAN 3.44 1 P
NANN 6.7 1 P
# 2014 04 14 08 32 35 12.350000 -86.460000 5.000000 2.600000 0.000000 0.000000 0.000000 276 
TBHS 8.94 1 P
TBHY 8.38 1 P
TBMR 8.64 1 P
TBTN 8.54 1 P
ACON 21.94 1 P
CNGN 5.63 1 P
CRIN 12.05 1 P
ESPN 32.9 1 P
HERN 8.52 1 P
MASN 10.39 1 P
MATN 14.04 1 P
MGAN 5.87 1 P
NANN 9.91 1 P
