# 2014 04 12 03 40 38 12.240000 -86.390000 11.000000 3.300000 0.000000 0.000000 0.000000 141 
TBHS 10.71 1 P
TBHY 10.18 1 P
TBMR 10.4 1 P
TBTN 10.34 1 P
ACON 20.1 1 P
CNGN 7.57 1 P
CRIN 13.6 1 P
CSGN 21.99 1 P
ESPN 31.35 1 P
HERN 10.33 1 P
MASN 8.21 1 P
MATN 14.38 1 P
MGAN 3.83 1 P
NANN 7.6 1 P
# 2014 04 12 05 03 37 12.340000 -86.490000 2.000000 2.200000 0.000000 0.000000 0.000000 142 
TBHS 8.92 1 P
TBHY 8.35 1 P
TBMR 8.6 1 P
TBTN 8.52 1 P
ACON 22.67 1 P
CNGN 5.58 1 P
CRIN 12.03 1 P
CSGN 21.04 1 P
ESPN 33.68 1 P
HERN 8.5 1 P
MASN 10.97 1 P
MATN 14.79 1 P
MGAN 6.39 1 P
NANN 10.39 1 P
# 2014 04 12 05 25 52 12.350000 -86.500000 5.000000 1.800000 0.000000 0.000000 0.000000 143 
TBHS 8.41 1 P
TBHY 7.84 1 P
TBMR 8.09 1 P
TBTN 8.01 1 P
ACON 22.45 1 P
CNGN 5.08 1 P
CRIN 11.51 1 P
CSGN 20.47 1 P
ESPN 33.43 1 P
HERN 7.99 1 P
MASN 10.91 1 P
MATN 14.46 1 P
MGAN 6.37 1 P
NANN 10.34 1 P
# 2014 04 12 06 04 08 12.310000 -86.450000 6.000000 2.200000 0.000000 0.000000 0.000000 144 
TBHS 9.42 1 P
TBHY 8.87 1 P
TBMR 9.11 1 P
TBTN 9.03 1 P
ACON 21.56 1 P
CNGN 6.13 1 P
CRIN 12.47 1 P
CSGN 21.24 1 P
ESPN 32.63 1 P
HERN 9.01 1 P
MASN 9.81 1 P
MATN 14.34 1 P
MGAN 5.24 1 P
NANN 9.24 1 P
# 2014 04 12 06 05 48 12.360000 -86.520000 11.000000 2.400000 0.000000 0.000000 0.000000 145 
# 2014 04 12 06 11 10 12.250000 -86.380000 5.000000 2.300000 0.000000 0.000000 0.000000 146 
TBHS 11 1 P
TBHY 10.44 1 P
TBMR 10.68 1 P
TBTN 10.61 1 P
ACON 20.53 1 P
CNGN 7.73 1 P
CRIN 13.99 1 P
CSGN 22.57 1 P
ESPN 31.77 1 P
HERN 10.59 1 P
MASN 8.33 1 P
MATN 14.54 1 P
MGAN 3.7 1 P
NANN 7.76 1 P
# 2014 04 12 06 25 25 12.460000 -86.570000 3.000000 1.900000 0.000000 0.000000 0.000000 147 
TBHS 6.54 1 P
TBHY 5.97 1 P
TBMR 6.27 1 P
TBTN 6.13 1 P
ACON 24.05 1 P
CNGN 3.17 1 P
CRIN 9.76 1 P
CSGN 19.06 1 P
ESPN 34.74 1 P
HERN 6.1 1 P
MASN 13.1 1 P
MATN 14.31 1 P
MGAN 8.67 1 P
NANN 12.63 1 P
# 2014 04 12 06 57 06 12.230000 -86.340000 19.000000 2.300000 0.000000 0.000000 0.000000 148 
TBHS 11.2 1 P
TBHY 10.71 1 P
TBMR 10.92 1 P
TBTN 10.85 1 P
ACON 18.85 1 P
CNGN 8.28 1 P
CRIN 13.94 1 P
CSGN 22.06 1 P
ESPN 30.12 1 P
HERN 10.84 1 P
MASN 7.51 1 P
MATN 13.76 1 P
MGAN 3.88 1 P
NANN 7.06 1 P
# 2014 04 12 07 04 47 12.350000 -86.510000 5.000000 1.600000 0.000000 0.000000 0.000000 149 
TBHS 8.28 1 P
TBHY 7.71 1 P
TBMR 7.95 1 P
TBTN 7.88 1 P
ACON 22.58 1 P
CNGN 4.94 1 P
CRIN 11.37 1 P
CSGN 20.35 1 P
ESPN 33.56 1 P
HERN 7.86 1 P
MASN 11.04 1 P
MATN 14.57 1 P
MGAN 6.5 1 P
NANN 10.45 1 P
# 2014 04 12 07 34 16 12.260000 -86.350000 14.000000 1.900000 0.000000 0.000000 0.000000 150 
TBHS 10.92 1 P
TBHY 10.4 1 P
TBMR 10.63 1 P
TBTN 10.55 1 P
ACON 19.41 1 P
CNGN 7.86 1 P
CRIN 13.77 1 P
CSGN 22.06 1 P
ESPN 30.59 1 P
HERN 10.53 1 P
MASN 7.86 1 P
MATN 13.65 1 P
MGAN 3.78 1 P
NANN 7.46 1 P
# 2014 04 12 07 59 05 12.370000 -86.490000 4.000000 1.100000 0.000000 0.000000 0.000000 151 
TBHS 8.41 1 P
TBHY 7.84 1 P
TBMR 8.11 1 P
TBTN 8.01 1 P
ACON 22.52 1 P
CNGN 5.08 1 P
CRIN 11.55 1 P
CSGN 20.55 1 P
ESPN 33.43 1 P
HERN 7.99 1 P
MASN 11.06 1 P
MATN 14.21 1 P
MGAN 6.54 1 P
NANN 10.56 1 P
# 2014 04 12 09 09 47 12.270000 -86.330000 15.000000 1.800000 0.000000 0.000000 0.000000 152 
TBHS 11.05 1 P
TBHY 10.54 1 P
TBMR 10.78 1 P
TBTN 10.69 1 P
ACON 19.11 1 P
CNGN 8.03 1 P
CRIN 13.89 1 P
CSGN 22.15 1 P
ESPN 30.25 1 P
HERN 10.67 1 P
MASN 7.72 1 P
MATN 13.33 1 P
MGAN 3.8 1 P
NANN 7.42 1 P
# 2014 04 12 09 31 58 12.280000 -86.350000 4.000000 2.100000 0.000000 0.000000 0.000000 153 
TBHS 11.17 1 P
TBHY 10.62 1 P
TBMR 10.88 1 P
TBTN 10.78 1 P
ACON 20.34 1 P
CNGN 7.91 1 P
CRIN 14.21 1 P
CSGN 22.82 1 P
ESPN 31.5 1 P
HERN 10.76 1 P
MASN 8.31 1 P
MATN 13.98 1 P
MGAN 3.77 1 P
NANN 7.95 1 P
# 2014 04 12 09 41 18 12.340000 -86.450000 6.000000 2.600000 0.000000 0.000000 0.000000 154 
TBHS 9.12 1 P
TBHY 8.56 1 P
TBMR 8.82 1 P
TBTN 8.73 1 P
ACON 21.67 1 P
CNGN 5.83 1 P
CRIN 12.2 1 P
CSGN 21.03 1 P
ESPN 32.65 1 P
HERN 8.71 1 P
MASN 10.11 1 P
MATN 13.98 1 P
MGAN 5.59 1 P
NANN 9.62 1 P
# 2014 04 12 10 02 09 12.230000 -86.380000 7.000000 3.200000 0.000000 0.000000 0.000000 155 
TBHS 11.1 1 P
TBHY 10.55 1 P
TBMR 10.78 1 P
TBTN 10.72 1 P
ACON 20.28 1 P
CNGN 7.87 1 P
CRIN 14.04 1 P
CSGN 22.52 1 P
ESPN 31.57 1 P
HERN 10.7 1 P
MASN 8.06 1 P
MATN 14.66 1 P
MGAN 3.47 1 P
NANN 7.43 1 P
# 2014 04 12 10 16 06 12.300000 -86.430000 2.000000 2.100000 0.000000 0.000000 0.000000 156 
TBHS 10.12 1 P
TBHY 9.56 1 P
TBMR 9.81 1 P
TBTN 9.73 1 P
ACON 21.75 1 P
CNGN 6.8 1 P
CRIN 13.2 1 P
CSGN 22.03 1 P
ESPN 32.85 1 P
HERN 9.71 1 P
MASN 9.78 1 P
MATN 14.67 1 P
MGAN 5.17 1 P
NANN 9.22 1 P
# 2014 04 12 10 23 13 12.270000 -86.340000 4.000000 2.700000 0.000000 0.000000 0.000000 157 
TBHS 11.4 1 P
TBHY 10.85 1 P
TBMR 11.1 1 P
TBTN 11.01 1 P
ACON 20.17 1 P
CNGN 8.14 1 P
CRIN 14.42 1 P
CSGN 23 1 P
ESPN 31.36 1 P
HERN 10.99 1 P
MASN 8.08 1 P
MATN 14.03 1 P
MGAN 3.52 1 P
NANN 7.71 1 P
# 2014 04 12 10 56 09 12.280000 -86.340000 11.000000 2.800000 0.000000 0.000000 0.000000 158 
TBHS 10.96 1 P
TBHY 10.42 1 P
TBMR 10.68 1 P
TBTN 10.58 1 P
ACON 19.58 1 P
CNGN 7.83 1 P
CRIN 13.88 1 P
CSGN 22.27 1 P
ESPN 30.7 1 P
HERN 10.56 1 P
MASN 7.96 1 P
MATN 13.45 1 P
MGAN 3.73 1 P
NANN 7.65 1 P
# 2014 04 12 11 14 06 12.350000 -86.490000 7.000000 2.100000 0.000000 0.000000 0.000000 159 
TBHS 8.46 1 P
TBHY 7.9 1 P
TBMR 8.15 1 P
TBTN 8.06 1 P
ACON 22.12 1 P
CNGN 5.16 1 P
CRIN 11.53 1 P
CSGN 20.4 1 P
ESPN 33.1 1 P
HERN 8.05 1 P
MASN 10.68 1 P
MATN 14.21 1 P
MGAN 6.18 1 P
NANN 10.13 1 P
# 2014 04 12 11 57 33 12.360000 -86.500000 2.000000 1.800000 0.000000 0.000000 0.000000 160 
TBHS 8.58 1 P
TBHY 8.01 1 P
TBMR 8.26 1 P
TBTN 8.18 1 P
ACON 22.88 1 P
CNGN 5.23 1 P
CRIN 11.71 1 P
CSGN 20.77 1 P
ESPN 33.83 1 P
HERN 8.16 1 P
MASN 11.3 1 P
MATN 14.67 1 P
MGAN 6.74 1 P
NANN 10.75 1 P
# 2014 04 12 12 16 16 12.360000 -86.540000 2.000000 1.800000 0.000000 0.000000 0.000000 161 
TBHS 8.05 1 P
TBHY 7.48 1 P
TBMR 7.72 1 P
TBTN 7.65 1 P
ACON 23.39 1 P
CNGN 4.7 1 P
CRIN 11.17 1 P
CSGN 20.29 1 P
ESPN 34.36 1 P
HERN 7.64 1 P
MASN 11.83 1 P
MATN 15.11 1 P
MGAN 7.27 1 P
NANN 11.2 1 P
# 2014 04 12 12 58 07 12.400000 -86.490000 5.000000 3.000000 0.000000 0.000000 0.000000 162 
TBHS 8.06 1 P
TBHY 7.49 1 P
TBMR 7.78 1 P
TBTN 7.66 1 P
ACON 22.53 1 P
CNGN 4.76 1 P
CRIN 11.21 1 P
CSGN 20.23 1 P
ESPN 33.35 1 P
HERN 7.63 1 P
MASN 11.3 1 P
MATN 13.79 1 P
MGAN 6.84 1 P
NANN 10.87 1 P
# 2014 04 12 13 29 19 12.380000 -86.510000 7.000000 1.900000 0.000000 0.000000 0.000000 163 
TBHS 7.89 1 P
TBHY 7.33 1 P
TBMR 7.59 1 P
TBTN 7.5 1 P
ACON 22.5 1 P
CNGN 4.59 1 P
CRIN 11 1 P
CSGN 19.94 1 P
ESPN 33.4 1 P
HERN 7.48 1 P
MASN 11.23 1 P
MATN 14.09 1 P
MGAN 6.77 1 P
NANN 10.72 1 P
# 2014 04 12 13 39 29 12.320000 -86.420000 3.000000 3.400000 0.000000 0.000000 0.000000 164 
TBHS 9.94 1 P
TBHY 9.38 1 P
TBMR 9.64 1 P
TBTN 9.55 1 P
ACON 21.55 1 P
CNGN 6.63 1 P
CRIN 13.03 1 P
CSGN 21.86 1 P
ESPN 32.59 1 P
HERN 9.52 1 P
MASN 9.74 1 P
MATN 14.2 1 P
MGAN 5.17 1 P
NANN 9.27 1 P
# 2014 04 12 14 17 50 12.350000 -86.490000 2.000000 2.800000 0.000000 0.000000 0.000000 165 
TBHS 8.81 1 P
TBHY 8.25 1 P
TBMR 8.5 1 P
TBTN 8.41 1 P
ACON 22.71 1 P
CNGN 5.47 1 P
CRIN 11.94 1 P
CSGN 20.96 1 P
ESPN 33.69 1 P
HERN 8.4 1 P
MASN 11.07 1 P
MATN 14.68 1 P
MGAN 6.5 1 P
NANN 10.52 1 P
# 2014 04 12 14 49 26 12.380000 -86.540000 2.000000 1.700000 0.000000 0.000000 0.000000 166 
TBHS 7.84 1 P
TBHY 7.26 1 P
TBMR 7.52 1 P
TBTN 7.43 1 P
ACON 23.47 1 P
CNGN 4.47 1 P
CRIN 10.98 1 P
CSGN 20.14 1 P
ESPN 34.38 1 P
HERN 7.42 1 P
MASN 12.02 1 P
MATN 14.89 1 P
MGAN 7.48 1 P
NANN 11.44 1 P
# 2014 04 12 17 21 14 12.360000 -86.530000 15.000000 3.200000 0.000000 0.000000 0.000000 167 
TBHS 7.75 1 P
TBHY 7.23 1 P
TBMR 7.45 1 P
TBTN 7.38 1 P
ACON 22.02 1 P
CNGN 4.76 1 P
CRIN 10.64 1 P
CSGN 19.22 1 P
ESPN 32.98 1 P
HERN 7.37 1 P
MASN 11.01 1 P
MATN 14.1 1 P
MGAN 6.8 1 P
NANN 10.43 1 P
# 2014 04 12 17 54 05 12.400000 -86.530000 7.000000 2.600000 0.000000 0.000000 0.000000 168 
TBHS 7.43 1 P
TBHY 6.87 1 P
TBMR 7.13 1 P
TBTN 7.03 1 P
ACON 22.84 1 P
CNGN 4.13 1 P
CRIN 10.55 1 P
CSGN 19.56 1 P
ESPN 33.69 1 P
HERN 7.01 1 P
MASN 11.68 1 P
MATN 14.1 1 P
MGAN 7.25 1 P
NANN 11.17 1 P
# 2014 04 12 18 16 02 12.420000 -86.550000 5.000000 2.200000 0.000000 0.000000 0.000000 169 
TBHS 7.03 1 P
TBHY 6.46 1 P
TBMR 6.74 1 P
TBTN 6.62 1 P
ACON 23.37 1 P
CNGN 3.7 1 P
CRIN 10.2 1 P
CSGN 19.36 1 P
ESPN 34.17 1 P
HERN 6.6 1 P
MASN 12.25 1 P
MATN 14.27 1 P
MGAN 7.79 1 P
NANN 11.74 1 P
# 2014 04 12 18 57 42 12.380000 -86.480000 6.000000 2.300000 0.000000 0.000000 0.000000 170 
TBHS 8.34 1 P
TBHY 7.77 1 P
TBMR 8.05 1 P
TBTN 7.94 1 P
ACON 22.21 1 P
CNGN 5.03 1 P
CRIN 11.46 1 P
CSGN 20.39 1 P
ESPN 33.09 1 P
HERN 7.91 1 P
MASN 10.9 1 P
MATN 13.83 1 P
MGAN 6.43 1 P
NANN 10.45 1 P
# 2014 04 12 19 55 48 12.380000 -86.510000 3.000000 2.600000 0.000000 0.000000 0.000000 171 
TBHS 8.13 1 P
TBHY 7.56 1 P
TBMR 7.83 1 P
TBTN 7.73 1 P
ACON 22.94 1 P
CNGN 4.79 1 P
CRIN 11.28 1 P
CSGN 20.36 1 P
ESPN 33.84 1 P
HERN 7.71 1 P
MASN 11.52 1 P
MATN 14.43 1 P
MGAN 6.99 1 P
NANN 11 1 P
# 2014 04 12 19 99 03 12.370000 -86.490000 6.000000 3.000000 0.000000 0.000000 0.000000 172 
TBMR 7.99 1 P
TBTN 7.89 1 P
ACON 22.3 1 P
CNGN 4.98 1 P
CRIN 11.4 1 P
CSGN 20.34 1 P
ESPN 33.22 1 P
HERN 7.87 1 P
MASN 10.92 1 P
MATN 14.05 1 P
NANN 10.43 1 P
# 2014 04 12 20 37 10 12.390000 -86.440000 4.000000 1.600000 0.000000 0.000000 0.000000 173 
TBHS 8.94 1 P
TBHY 8.37 1 P
TBMR 8.67 1 P
TBTN 8.53 1 P
ACON 21.97 1 P
CNGN 5.66 1 P
CRIN 12.08 1 P
CSGN 21.01 1 P
ESPN 32.79 1 P
HERN 8.5 1 P
MASN 10.66 1 P
MATN 13.44 1 P
MGAN 6.22 1 P
NANN 10.33 1 P
# 2014 04 12 21 28 59 12.390000 -86.550000 11.000000 1.200000 0.000000 0.000000 0.000000 174 
TBHS 7.21 1 P
TBHY 6.66 1 P
TBMR 6.9 1 P
TBTN 6.82 1 P
ACON 22.7 1 P
CNGN 4.05 1 P
CRIN 10.22 1 P
CSGN 19.07 1 P
ESPN 33.59 1 P
HERN 6.81 1 P
MASN 11.66 1 P
MATN 14.2 1 P
MGAN 7.33 1 P
NANN 11.1 1 P
# 2014 04 12 21 34 39 12.260000 -86.370000 3.000000 2.300000 0.000000 0.000000 0.000000 175 
TBHS 11.2 1 P
TBHY 10.64 1 P
TBMR 10.89 1 P
TBTN 10.81 1 P
ACON 20.66 1 P
CNGN 7.92 1 P
CRIN 14.23 1 P
CSGN 22.86 1 P
ESPN 31.88 1 P
HERN 10.79 1 P
MASN 8.45 1 P
MATN 14.52 1 P
MGAN 3.8 1 P
NANN 7.95 1 P
# 2014 04 12 22 25 25 12.440000 -86.550000 3.000000 1.200000 0.000000 0.000000 0.000000 176 
TBHS 7 1 P
TBHY 6.43 1 P
TBMR 6.73 1 P
TBTN 6.6 1 P
ACON 23.71 1 P
CNGN 3.65 1 P
CRIN 10.21 1 P
CSGN 19.45 1 P
ESPN 34.45 1 P
HERN 6.57 1 P
MASN 12.64 1 P
MATN 14.26 1 P
MGAN 8.19 1 P
NANN 12.17 1 P
# 2014 04 13 00 27 10 12.320000 -86.470000 3.000000 2.100000 0.000000 0.000000 0.000000 177 
TBHS 9.28 1 P
TBHY 8.71 1 P
TBMR 8.96 1 P
TBTN 8.88 1 P
ACON 22.2 1 P
CNGN 5.95 1 P
CRIN 12.37 1 P
CSGN 21.28 1 P
ESPN 33.25 1 P
HERN 8.87 1 P
MASN 10.4 1 P
MATN 14.69 1 P
MGAN 5.8 1 P
NANN 9.8 1 P
# 2014 04 13 01 20 06 12.260000 -86.350000 5.000000 4.300000 0.000000 0.000000 0.000000 178 
TBHS 11.28 1 P
TBHY 10.73 1 P
TBMR 10.98 1 P
TBTN 10.89 1 P
ACON 20.16 1 P
CNGN 8.03 1 P
CRIN 14.29 1 P
CSGN 22.84 1 P
ESPN 31.37 1 P
HERN 10.87 1 P
MASN 8.03 1 P
MATN 14.16 1 P
MGAN 3.44 1 P
NANN 7.59 1 P
# 2014 04 13 01 29 46 12.380000 -86.540000 15.000000 2.600000 0.000000 0.000000 0.000000 179 
TBHS 7.43 1 P
TBHY 6.91 1 P
TBMR 7.14 1 P
TBTN 7.07 1 P
ACON 22.22 1 P
CNGN 4.47 1 P
CRIN 10.34 1 P
CSGN 18.97 1 P
ESPN 33.14 1 P
HERN 7.05 1 P
MASN 11.31 1 P
MATN 14 1 P
MGAN 7.11 1 P
NANN 10.76 1 P
# 2014 04 13 01 35 57 12.260000 -86.380000 5.000000 2.100000 0.000000 0.000000 0.000000 180 
TBHS 10.89 1 P
TBHY 10.34 1 P
TBMR 10.58 1 P
TBTN 10.51 1 P
ACON 20.56 1 P
CNGN 7.62 1 P
CRIN 13.9 1 P
CSGN 22.5 1 P
ESPN 31.77 1 P
HERN 10.49 1 P
MASN 8.43 1 P
MATN 14.41 1 P
MGAN 3.81 1 P
NANN 7.89 1 P
# 2014 04 13 01 59 11 12.370000 -86.560000 15.000000 2.300000 0.000000 0.000000 0.000000 181 
TBHS 7.3 1 P
TBHY 6.78 1 P
TBMR 6.99 1 P
TBTN 6.93 1 P
ACON 22.44 1 P
CNGN 4.35 1 P
CRIN 10.18 1 P
CSGN 18.81 1 P
ESPN 33.39 1 P
HERN 6.92 1 P
MASN 11.47 1 P
MATN 14.31 1 P
MGAN 7.26 1 P
NANN 10.86 1 P
# 2014 04 13 02 05 34 12.250000 -86.390000 3.000000 3.200000 0.000000 0.000000 0.000000 182 
TBHS 11.05 1 P
TBHY 10.49 1 P
TBMR 10.72 1 P
TBTN 10.66 1 P
ACON 20.9 1 P
CNGN 7.76 1 P
CRIN 14.06 1 P
CSGN 22.71 1 P
ESPN 32.15 1 P
HERN 10.64 1 P
MASN 8.63 1 P
MATN 14.83 1 P
MGAN 3.96 1 P
NANN 8.03 1 P
# 2014 04 13 02 07 37 12.240000 -86.380000 6.000000 3.400000 0.000000 0.000000 0.000000 183 
TBHS 11.04 1 P
TBHY 10.49 1 P
TBMR 10.72 1 P
TBTN 10.66 1 P
ACON 20.4 1 P
CNGN 7.79 1 P
CRIN 14.01 1 P
CSGN 22.54 1 P
ESPN 31.66 1 P
HERN 10.64 1 P
MASN 8.19 1 P
MATN 14.6 1 P
MGAN 3.56 1 P
NANN 7.58 1 P
# 2014 04 13 02 18 34 12.400000 -86.530000 13.000000 1.700000 0.000000 0.000000 0.000000 184 
TBHS 7.36 1 P
TBHY 6.83 1 P
TBMR 7.08 1 P
TBTN 6.99 1 P
ACON 22.33 1 P
CNGN 4.31 1 P
CRIN 10.35 1 P
CSGN 19.08 1 P
ESPN 33.18 1 P
HERN 6.97 1 P
MASN 11.44 1 P
MATN 13.78 1 P
MGAN 7.19 1 P
NANN 10.95 1 P
# 2014 04 13 02 30 48 12.210000 -86.370000 15.000000 1.900000 0.000000 0.000000 0.000000 185 
TBHS 11.14 1 P
TBHY 10.62 1 P
TBMR 10.83 1 P
TBTN 10.78 1 P
ACON 19.45 1 P
CNGN 8.11 1 P
CRIN 13.92 1 P
CSGN 22.13 1 P
ESPN 30.77 1 P
HERN 10.77 1 P
MASN 7.67 1 P
MATN 14.4 1 P
MGAN 3.65 1 P
NANN 7.04 1 P
# 2014 04 13 02 31 34 12.250000 -86.380000 12.000000 2.500000 0.000000 0.000000 0.000000 186 
# 2014 04 13 03 12 12 12.400000 -86.570000 6.000000 2.000000 0.000000 0.000000 0.000000 187 
TBHS 6.92 1 P
TBHY 6.35 1 P
TBMR 6.6 1 P
TBTN 6.52 1 P
ACON 23.44 1 P
CNGN 3.57 1 P
CRIN 10.05 1 P
CSGN 19.17 1 P
ESPN 34.31 1 P
HERN 6.5 1 P
MASN 12.24 1 P
MATN 14.63 1 P
MGAN 7.78 1 P
NANN 11.65 1 P
# 2014 04 13 03 12 41 12.410000 -86.560000 1.000000 2.000000 0.000000 0.000000 0.000000 188 
# 2014 04 13 03 27 22 12.330000 -86.460000 11.000000 2.400000 0.000000 0.000000 0.000000 189 
TBHS 8.95 1 P
TBHY 8.4 1 P
TBMR 8.65 1 P
TBTN 8.56 1 P
ACON 21.31 1 P
CNGN 5.77 1 P
CRIN 11.92 1 P
CSGN 20.54 1 P
ESPN 32.33 1 P
HERN 8.55 1 P
MASN 9.96 1 P
MATN 13.91 1 P
MGAN 5.59 1 P
NANN 9.44 1 P
# 2014 04 13 03 49 30 12.380000 -86.510000 13.000000 2.300000 0.000000 0.000000 0.000000 190 
TBHS 7.81 1 P
TBHY 7.27 1 P
TBMR 7.52 1 P
TBTN 7.43 1 P
ACON 21.99 1 P
CNGN 4.73 1 P
CRIN 10.78 1 P
CSGN 19.46 1 P
ESPN 32.89 1 P
HERN 7.41 1 P
MASN 11 1 P
MATN 13.77 1 P
MGAN 6.74 1 P
NANN 10.51 1 P
# 2014 04 13 04 18 53 12.400000 -86.530000 4.000000 1.400000 0.000000 0.000000 0.000000 191 
TBHS 7.57 1 P
TBHY 7 1 P
TBMR 7.27 1 P
TBTN 7.16 0 P
ACON 23.15 1 P
CNGN 4.23 1 P
CRIN 10.73 1 P
CSGN 19.85 1 P
ESPN 34 1 P
HERN 7.14 0 P
MASN 11.88 1 P
MATN 14.33 1 P
MGAN 7.38 1 P
NANN 11.36 1 P
# 2014 04 13 04 21 32 12.380000 -86.430000 15.000000 1.800000 0.000000 0.000000 0.000000 192 
TBHS 8.84 1 P
TBHY 8.32 1 P
TBMR 8.59 1 P
TBTN 8.47 1 P
ACON 20.82 1 P
CNGN 5.85 1 P
CRIN 11.77 1 P
CSGN 20.24 1 P
ESPN 31.67 1 P
HERN 8.45 1 P
MASN 10.02 1 P
MATN 12.86 1 P
MGAN 5.94 1 P
NANN 9.71 1 P
# 2014 04 13 04 59 00 12.380000 -86.500000 7.000000 1.600000 0.000000 0.000000 0.000000 193 
TBHS 8.03 1 P
TBHY 7.47 1 P
TBMR 7.73 1 P
TBTN 7.63 1 P
ACON 22.37 1 P
CNGN 4.74 1 P
CRIN 11.13 1 P
CSGN 20.06 1 P
ESPN 33.26 1 P
HERN 7.61 1 P
MASN 11.11 1 P
MATN 13.98 1 P
MGAN 6.65 1 P
NANN 10.61 1 P
# 2014 04 13 05 10 18 12.380000 -86.430000 4.000000 3.300000 0.000000 0.000000 0.000000 194 
TBHS 9.16 1 P
TBHY 8.6 1 P
TBMR 8.89 1 P
TBTN 8.76 1 P
ACON 21.79 1 P
CNGN 5.89 1 P
CRIN 12.3 1 P
CSGN 21.2 1 P
ESPN 32.65 1 P
HERN 8.73 1 P
MASN 10.43 1 P
MATN 13.45 1 P
MGAN 5.98 1 P
NANN 10.1 1 P
# 2014 04 13 05 41 04 12.370000 -86.440000 3.000000 3.400000 0.000000 0.000000 0.000000 195 
TBHS 9.2 1 P
TBHY 8.64 1 P
TBMR 8.92 1 P
TBTN 8.8 1 P
ACON 22.01 1 P
CNGN 5.9 1 P
CRIN 12.34 1 P
CSGN 21.28 1 P
ESPN 32.9 1 P
HERN 8.77 1 P
MASN 10.53 1 P
MATN 13.78 1 P
MGAN 6.04 1 P
NANN 10.15 1 P
# 2014 04 13 05 54 36 12.370000 -86.450000 5.000000 3.600000 0.000000 0.000000 0.000000 196 
TBHS 8.9 1 P
TBHY 8.33 1 P
TBMR 8.61 1 P
TBTN 8.49 1 P
ACON 21.89 1 P
CNGN 5.6 1 P
CRIN 12.02 1 P
CSGN 20.92 1 P
ESPN 32.79 1 P
HERN 8.47 1 P
MASN 10.48 1 P
MATN 13.7 1 P
MGAN 6 1 P
NANN 10.08 1 P
# 2014 04 13 06 05 48 12.360000 -86.560000 6.000000 1.400000 0.000000 0.000000 0.000000 197 
TBHS 7.48 1 P
TBHY 6.92 1 P
TBMR 7.14 1 P
TBTN 7.09 1 P
ACON 23.15 1 P
CNGN 4.17 1 P
CRIN 10.56 1 P
CSGN 19.59 1 P
ESPN 34.14 1 P
HERN 7.08 1 P
MASN 11.74 1 P
MATN 14.93 1 P
MGAN 7.23 1 P
NANN 11.07 1 P
# 2014 04 13 06 14 59 12.310000 -86.440000 12.000000 2.200000 0.000000 0.000000 0.000000 198 
TBHS 9.37 1 P
TBHY 8.84 1 P
TBMR 9.07 1 P
TBTN 9 1 P
ACON 20.9 1 P
CNGN 6.23 1 P
CRIN 12.31 1 P
CSGN 20.83 1 P
ESPN 31.97 1 P
HERN 8.98 1 P
MASN 9.49 1 P
MATN 13.9 1 P
MGAN 5.16 1 P
NANN 8.97 1 P
# 2014 04 13 06 15 51 12.360000 -86.470000 8.000000 2.000000 0.000000 0.000000 0.000000 199 
# 2014 04 13 06 17 59 12.300000 -86.440000 12.000000 1.600000 0.000000 0.000000 0.000000 200 
TBHY 8.94 1 P
TBMR 9.17 1 P
TBTN 9.1 1 P
ACON 20.86 1 P
CNGN 6.33 1 P
CRIN 12.4 1 P
CSGN 20.9 1 P
ESPN 31.96 1 P
HERN 9.08 1 P
MASN 9.39 1 P
MATN 14.02 1 P
MGAN 5.06 1 P
NANN 8.84 1 P
# 2014 04 13 06 23 21 12.210000 -86.410000 15.000000 1.900000 0.000000 0.000000 0.000000 201 
TBHS 10.69 1 P
TBHY 10.17 1 P
TBMR 10.37 1 P
TBTN 10.33 1 P
ACON 19.97 1 P
CNGN 7.67 1 P
CRIN 13.46 1 P
CSGN 21.69 1 P
ESPN 31.31 1 P
HERN 10.32 1 P
MASN 8.2 1 P
MATN 14.71 1 P
MGAN 4.12 1 P
NANN 7.46 1 P
# 2014 04 13 06 45 37 12.420000 -86.520000 6.000000 1.800000 0.000000 0.000000 0.000000 202 
TBHS 7.41 1 P
TBHY 6.84 1 P
TBMR 7.13 1 P
TBTN 7.01 1 P
ACON 22.89 1 P
CNGN 4.12 1 P
CRIN 10.57 1 P
CSGN 19.63 1 P
ESPN 33.67 1 P
HERN 6.98 1 P
MASN 11.82 1 P
MATN 13.84 1 P
MGAN 7.39 1 P
NANN 11.37 1 P
# 2014 04 13 06 53 29 12.350000 -86.490000 6.000000 1.900000 0.000000 0.000000 0.000000 203 
TBHS 8.49 1 P
TBHY 7.93 1 P
TBMR 8.18 1 P
TBTN 8.09 1 P
ACON 22.22 1 P
CNGN 5.17 1 P
CRIN 11.58 1 P
CSGN 20.49 1 P
ESPN 33.19 1 P
HERN 8.08 1 P
MASN 10.72 1 P
MATN 14.28 1 P
MGAN 6.2 1 P
NANN 10.17 1 P
# 2014 04 13 07 00 40 12.330000 -86.440000 5.000000 2.100000 0.000000 0.000000 0.000000 204 
TBHS 9.41 1 P
TBHY 8.85 1 P
TBMR 9.11 1 P
TBTN 9.01 1 P
ACON 21.6 1 P
CNGN 6.1 1 P
CRIN 12.49 1 P
CSGN 21.31 1 P
ESPN 32.61 1 P
HERN 8.99 1 P
MASN 9.93 1 P
MATN 14.07 1 P
MGAN 5.38 1 P
NANN 9.44 1 P
# 2014 04 13 07 19 34 12.360000 -86.450000 2.000000 2.500000 0.000000 0.000000 0.000000 205 
TBHS 9.26 1 P
TBHY 8.7 1 P
TBMR 8.97 1 P
TBTN 8.86 1 P
ACON 22.24 1 P
CNGN 5.94 1 P
CRIN 12.4 1 P
CSGN 21.37 1 P
ESPN 33.17 1 P
HERN 8.84 1 P
MASN 10.66 1 P
MATN 14.13 1 P
MGAN 6.13 1 P
NANN 10.23 1 P
# 2014 04 13 07 21 28 12.240000 -86.340000 17.000000 1.100000 0.000000 0.000000 0.000000 206 
TBHS 11.15 1 P
ACON 19.01 1 P
CNGN 8.17 1 P
CRIN 13.93 1 P
CSGN 22.11 1 P
ESPN 30.24 1 P
HERN 10.78 1 P
MASN 7.56 1 P
MATN 13.71 1 P
MGAN 3.76 1 P
NANN 7.14 1 P
# 2014 04 13 07 21 54 12.070000 -86.350000 13.000000 1.300000 0.000000 0.000000 0.000000 207 
# 2014 04 13 07 43 16 12.340000 -86.550000 2.000000 1.200000 0.000000 0.000000 0.000000 208 
TBHS 8.15 1 P
TBHY 7.59 1 P
TBMR 7.8 1 P
TBTN 7.76 1 P
ACON 23.44 1 P
CNGN 4.83 1 P
CRIN 11.24 1 P
CSGN 20.33 1 P
ESPN 34.48 1 P
HERN 7.75 1 P
MASN 11.78 1 P
MATN 15.44 1 P
MGAN 7.21 1 P
NANN 11.08 1 P
