# 2014 04 17 06 40 47 12.160000 -86.370000 2.000000 1.500000 0.000000 0.000000 0.000000 410 
TBHS 12.4 1 P
TBHY 11.85 1 P
TBMR 12.05 1 P
TBTN 12.02 1 P
ACON 20.52 1 P
CNGN 9.17 1 P
CRIN 15.31 1 P
CSGN 23.76 1 P
ESPN 32.02 1 P
HERN 12.01 1 P
MASN 7.69 1 P
MATN 16 1 P
MGAN 3.01 1 P
NANN 6.78 1 P
# 2014 04 17 06 44 21 12.370000 -86.490000 13.000000 2.200000 0.000000 0.000000 0.000000 411 
TBHS 8.16 1 P
TBHY 7.62 1 P
TBMR 7.87 1 P
TBTN 7.78 1 P
ACON 21.69 1 P
CNGN 5.07 1 P
CRIN 11.12 1 P
CSGN 19.76 1 P
ESPN 32.61 1 P
HERN 7.76 1 P
MASN 10.66 1 P
MATN 13.66 1 P
MGAN 6.4 1 P
NANN 10.18 1 P
# 2014 04 17 06 56 26 12.170000 -86.320000 14.000000 1.900000 0.000000 0.000000 0.000000 412 
TBHS 12.14 1 P
TBHY 11.63 1 P
TBMR 11.84 1 P
TBTN 11.79 1 P
ACON 18.75 1 P
CNGN 9.12 1 P
CRIN 14.91 1 P
CSGN 23.06 1 P
ESPN 30.18 1 P
HERN 11.77 1 P
MASN 6.67 1 P
MATN 14.62 1 P
MGAN 2.87 1 P
NANN 6.04 1 P
# 2014 04 17 07 59 60 12.210000 -86.320000 6.000000 2.300000 0.000000 0.000000 0.000000 413 
TBHS 12.1 1 P
TBHY 11.56 1 P
TBMR 11.79 1 P
TBTN 11.72 1 P
ACON 19.49 1 P
CNGN 8.89 1 P
CRIN 15.03 1 P
CSGN 23.44 1 P
ESPN 30.86 1 P
HERN 11.7 1 P
MASN 7.07 1 P
MATN 14.54 1 P
MGAN 2.44 1 P
NANN 6.56 1 P
# 2014 04 17 09 00 39 12.150000 -86.330000 12.000000 1.900000 0.000000 0.000000 0.000000 414 
TBHS 12.31 1 P
TBHY 11.8 1 P
TBMR 11.99 1 P
TBTN 11.95 1 P
ACON 18.99 1 P
CNGN 9.25 1 P
CRIN 15.09 1 P
CSGN 23.26 1 P
ESPN 30.47 1 P
HERN 11.94 1 P
MASN 6.65 1 P
MATN 15.06 1 P
MGAN 2.71 1 P
NANN 5.87 1 P
# 2014 04 17 09 07 38 12.180000 -86.330000 6.000000 2.500000 0.000000 0.000000 0.000000 415 
TBHS 12.28 1 P
TBHY 11.74 1 P
TBMR 11.96 1 P
TBTN 11.91 1 P
ACON 19.55 1 P
CNGN 9.08 1 P
CRIN 15.18 1 P
CSGN 23.55 1 P
ESPN 30.99 1 P
HERN 11.89 1 P
MASN 6.94 1 P
MATN 15.02 1 P
MGAN 2.31 1 P
NANN 6.26 1 P
# 2014 04 17 09 20 17 12.190000 -86.330000 1.000000 1.400000 0.000000 0.000000 0.000000 416 
TBHS 12.72 1 P
TBHY 12.18 1 P
TBMR 12.4 1 P
TBTN 12.34 1 P
ACON 20.23 1 P
CNGN 9.47 1 P
CRIN 15.68 1 P
CSGN 24.17 1 P
ESPN 31.68 1 P
HERN 12.33 1 P
MASN 7.51 1 P
MATN 15.47 1 P
MGAN 2.53 1 P
NANN 6.87 1 P
# 2014 04 17 09 25 51 12.230000 -86.330000 6.000000 1.800000 0.000000 0.000000 0.000000 417 
TBHS 11.77 1 P
TBHY 11.23 1 P
TBMR 11.47 1 P
TBTN 11.39 1 P
ACON 19.69 1 P
CNGN 8.55 1 P
CRIN 14.73 1 P
CSGN 23.18 1 P
ESPN 30.99 1 P
HERN 11.37 1 P
MASN 7.41 1 P
MATN 14.34 1 P
MGAN 2.8 1 P
NANN 6.94 1 P
# 2014 04 17 10 13 02 12.330000 -86.450000 8.000000 1.100000 0.000000 0.000000 0.000000 418 
TBHS 9.15 1 P
TBHY 8.6 1 P
TBMR 8.85 1 P
TBTN 8.76 1 P
ACON 21.44 1 P
CNGN 5.9 1 P
CRIN 12.19 1 P
CSGN 20.91 1 P
ESPN 32.46 1 P
HERN 8.74 1 P
MASN 9.93 1 P
MATN 13.98 1 P
MGAN 5.45 1 P
NANN 9.42 1 P
# 2014 04 17 10 36 59 12.180000 -86.330000 6.000000 2.500000 0.000000 0.000000 0.000000 419 
TBHS 12.28 1 P
TBHY 11.74 1 P
TBMR 11.96 1 P
TBTN 11.91 1 P
ACON 19.55 1 P
CNGN 9.08 1 P
CRIN 15.18 1 P
CSGN 23.55 1 P
ESPN 30.99 1 P
HERN 11.89 1 P
MASN 6.94 1 P
MATN 15.02 1 P
MGAN 2.31 1 P
NANN 6.26 1 P
# 2014 04 17 10 44 32 12.160000 -86.310000 15.000000 2.200000 0.000000 0.000000 0.000000 420 
TBHS 12.32 1 P
TBHY 11.82 1 P
TBMR 12.02 1 P
TBTN 11.97 1 P
ACON 18.53 1 P
CNGN 9.32 1 P
CRIN 15.06 1 P
CSGN 23.17 1 P
ESPN 29.98 1 P
HERN 11.96 1 P
MASN 6.48 1 P
MATN 14.64 1 P
MGAN 2.88 1 P
NANN 5.85 1 P
# 2014 04 17 11 04 06 12.150000 -86.330000 15.000000 2.100000 0.000000 0.000000 0.000000 421 
TBHS 12.2 1 P
TBHY 11.69 1 P
TBMR 11.89 1 P
TBTN 11.85 1 P
ACON 18.77 1 P
CNGN 9.21 1 P
CRIN 14.93 1 P
CSGN 23.03 1 P
ESPN 30.25 1 P
HERN 11.84 1 P
MASN 6.68 1 P
MATN 14.9 1 P
MGAN 3.04 1 P
NANN 5.93 1 P
# 2014 04 17 14 27 28 12.370000 -86.440000 4.000000 3.300000 0.000000 0.000000 0.000000 422 
TBHS 9.11 1 P
TBHY 8.54 1 P
TBMR 8.83 1 P
TBTN 8.71 1 P
ACON 21.88 1 P
CNGN 5.81 1 P
CRIN 12.24 1 P
CSGN 21.15 1 P
ESPN 32.77 1 P
HERN 8.68 1 P
MASN 10.44 1 P
MATN 13.68 1 P
MGAN 5.95 1 P
NANN 10.06 1 P
# 2014 04 17 15 45 08 12.390000 -86.430000 2.000000 3.000000 0.000000 0.000000 0.000000 423 
TBHS 9.29 1 P
TBHY 8.72 1 P
TBMR 9.02 1 P
TBTN 8.88 1 P
ACON 22.11 1 P
CNGN 6.02 1 P
CRIN 12.44 1 P
CSGN 21.4 1 P
ESPN 32.93 1 P
HERN 8.85 1 P
MASN 10.75 1 P
MATN 13.56 1 P
MGAN 6.32 1 P
NANN 10.45 1 P
# 2014 04 17 15 53 58 12.180000 -86.360000 8.000000 2.200000 0.000000 0.000000 0.000000 424 
TBHS 11.82 1 P
TBHY 11.29 1 P
TBMR 11.5 1 P
TBTN 11.45 1 P
ACON 19.78 1 P
CNGN 8.66 1 P
CRIN 14.69 1 P
CSGN 23.03 1 P
ESPN 31.21 1 P
HERN 11.44 1 P
MASN 7.33 1 P
MATN 15.11 1 P
MGAN 2.85 1 P
NANN 6.56 1 P
# 2014 04 17 19 17 35 12.360000 -86.520000 6.000000 1.500000 0.000000 0.000000 0.000000 425 
TBHS 7.99 1 P
TBHY 7.43 1 P
TBMR 7.67 1 P
TBTN 7.6 1 P
ACON 22.64 1 P
CNGN 4.67 1 P
CRIN 11.09 1 P
CSGN 20.06 1 P
ESPN 33.6 1 P
HERN 7.58 1 P
MASN 11.21 1 P
MATN 14.49 1 P
MGAN 6.7 1 P
NANN 10.62 1 P
# 2014 04 17 20 20 47 12.410000 -86.540000 6.000000 3.000000 0.000000 0.000000 0.000000 426 
TBHS 7.22 1 P
TBHY 6.65 1 P
TBMR 6.93 1 P
TBTN 6.82 1 P
ACON 23.1 1 P
CNGN 3.9 1 P
CRIN 10.37 1 P
CSGN 19.46 1 P
ESPN 33.93 1 P
HERN 6.8 1 P
MASN 11.96 1 P
MATN 14.18 1 P
MGAN 7.51 1 P
NANN 11.45 1 P
# 2014 04 17 22 15 43 12.390000 -86.550000 2.000000 1.300000 0.000000 0.000000 0.000000 427 
TBHS 7.6 1 P
TBHY 7.02 1 P
TBMR 7.28 1 P
TBTN 7.19 1 P
ACON 23.64 1 P
CNGN 4.21 1 P
CRIN 10.76 1 P
CSGN 19.95 1 P
ESPN 34.53 1 P
HERN 7.18 1 P
MASN 12.25 1 P
MATN 14.9 1 P
MGAN 7.72 1 P
NANN 11.67 1 P
# 2014 04 17 22 16 49 12.430000 -86.570000 2.000000 1.000000 0.000000 0.000000 0.000000 428 
# 2014 04 17 22 32 17 12.200000 -86.340000 5.000000 3.700000 0.000000 0.000000 0.000000 429 
TBHS 12.02 1 P
TBHY 11.47 1 P
TBMR 11.7 1 P
TBTN 11.63 1 P
ACON 19.83 1 P
CNGN 8.79 1 P
CRIN 14.95 1 P
CSGN 23.39 1 P
ESPN 31.23 1 P
HERN 11.62 1 P
MASN 7.3 1 P
MATN 14.9 1 P
MGAN 2.61 1 P
NANN 6.67 1 P
# 2014 04 17 22 35 49 12.180000 -86.330000 15.000000 2.800000 0.000000 0.000000 0.000000 430 
TBHS 11.9 1 P
TBHY 11.39 1 P
TBMR 11.59 1 P
TBTN 11.54 1 P
ACON 18.84 1 P
CNGN 8.88 1 P
CRIN 14.65 1 P
CSGN 22.8 1 P
ESPN 30.24 1 P
HERN 11.53 1 P
MASN 6.9 1 P
MATN 14.5 1 P
MGAN 3.1 1 P
NANN 6.28 1 P
# 2014 04 17 23 06 21 12.350000 -86.520000 13.000000 1.400000 0.000000 0.000000 0.000000 431 
TBHS 7.97 1 P
TBHY 7.44 1 P
TBMR 7.66 1 P
TBTN 7.6 1 P
ACON 22 1 P
CNGN 4.88 1 P
CRIN 10.91 1 P
CSGN 19.56 1 P
ESPN 32.99 1 P
HERN 7.59 1 P
MASN 10.84 1 P
MATN 14.19 1 P
MGAN 6.55 1 P
NANN 10.26 1 P
# 2014 04 17 23 22 23 12.300000 -86.470000 10.000000 1.800000 0.000000 0.000000 0.000000 432 
TBHS 9.15 1 P
TBHY 8.61 1 P
TBMR 8.83 1 P
TBTN 8.77 1 P
ACON 21.42 1 P
CNGN 5.95 1 P
CRIN 12.11 1 P
CSGN 20.73 1 P
ESPN 32.53 1 P
HERN 8.75 1 P
MASN 9.83 1 P
MATN 14.41 1 P
MGAN 5.4 1 P
NANN 9.21 1 P
# 2014 04 17 23 42 21 12.200000 -86.340000 5.000000 2.500000 0.000000 0.000000 0.000000 433 
TBHS 12.02 1 P
TBHY 11.47 1 P
TBMR 11.7 1 P
TBTN 11.63 1 P
ACON 19.83 1 P
CNGN 8.79 1 P
CRIN 14.95 1 P
CSGN 23.39 1 P
ESPN 31.23 1 P
HERN 11.62 1 P
MASN 7.3 1 P
MATN 14.9 1 P
MGAN 2.61 1 P
NANN 6.67 1 P
# 2014 04 18 00 19 05 12.370000 -86.470000 2.000000 3.900000 0.000000 0.000000 0.000000 434 
TBHS 8.89 1 P
TBHY 8.32 1 P
TBMR 8.6 1 P
TBTN 8.49 0 P
ACON 22.54 1 P
CNGN 5.56 1 P
CRIN 12.04 1 P
CSGN 21.06 1 P
ESPN 33.44 1 P
HERN 8.46 1 P
MASN 11.02 1 P
MATN 14.23 1 P
MGAN 6.49 1 P
NANN 10.56 1 P
# 2014 04 18 01 10 13 12.180000 -86.340000 6.000000 1.800000 0.000000 0.000000 0.000000 435 
TBHS 12.16 1 P
TBHY 11.62 1 P
TBMR 11.84 1 P
TBTN 11.79 1 P
ACON 19.68 1 P
CNGN 8.96 1 P
CRIN 15.06 1 P
CSGN 23.44 1 P
ESPN 31.12 1 P
HERN 11.77 1 P
MASN 7.08 1 P
MATN 15.1 1 P
MGAN 2.47 1 P
NANN 6.37 1 P
# 2014 04 18 01 37 53 12.300000 -86.450000 2.000000 2.800000 0.000000 0.000000 0.000000 436 
TBHS 9.86 1 P
TBHY 9.3 1 P
TBMR 9.54 1 P
TBTN 9.47 1 P
ACON 22.01 1 P
CNGN 6.54 1 P
CRIN 12.94 1 P
CSGN 21.8 1 P
ESPN 33.12 1 P
HERN 9.45 1 P
MASN 10.05 1 P
MATN 14.86 1 P
MGAN 5.43 1 P
NANN 9.44 1 P
# 2014 04 18 02 04 27 12.320000 -86.460000 13.000000 1.700000 0.000000 0.000000 0.000000 437 
TBHS 9.01 1 P
TBHY 8.48 1 P
TBMR 8.71 1 P
TBTN 8.63 1 P
ACON 21.12 1 P
CNGN 5.9 1 P
CRIN 11.93 1 P
CSGN 20.45 1 P
ESPN 32.16 1 P
HERN 8.62 1 P
MASN 9.81 1 P
MATN 13.92 1 P
MGAN 5.52 1 P
NANN 9.28 1 P
# 2014 04 18 03 42 53 12.380000 -86.500000 10.000000 2.800000 0.000000 0.000000 0.000000 438 
TBHS 7.97 1 P
TBHY 7.42 1 P
TBMR 7.68 1 P
TBTN 7.58 1 P
ACON 22.1 1 P
CNGN 4.77 1 P
CRIN 11.01 1 P
CSGN 19.81 1 P
ESPN 33 1 P
HERN 7.56 1 P
MASN 10.98 1 P
MATN 13.81 1 P
MGAN 6.62 1 P
NANN 10.49 1 P
# 2014 04 18 04 51 24 12.220000 -86.330000 14.000000 2.200000 0.000000 0.000000 0.000000 439 
TBHS 11.54 1 P
TBHY 11.02 1 P
TBMR 11.24 1 P
TBTN 11.17 1 P
ACON 19.02 1 P
CNGN 8.49 1 P
CRIN 14.35 1 P
CSGN 22.57 1 P
ESPN 30.31 1 P
HERN 11.16 1 P
MASN 7.23 1 P
MATN 14.02 1 P
MGAN 3.23 1 P
NANN 6.76 1 P
# 2014 04 18 05 52 55 12.210000 -86.360000 5.000000 1.000000 0.000000 0.000000 0.000000 440 
TBHS 11.66 1 P
TBHY 11.12 1 P
TBMR 11.34 1 P
TBTN 11.28 1 P
ACON 20.14 1 P
CNGN 8.42 1 P
CRIN 14.61 1 P
CSGN 23.09 1 P
ESPN 31.49 1 P
HERN 11.27 1 P
MASN 7.68 1 P
MATN 14.91 1 P
MGAN 3.01 1 P
NANN 7.02 1 P
# 2014 04 18 06 26 24 12.260000 -86.300000 12.000000 1.700000 0.000000 0.000000 0.000000 441 
TBHS 11.61 1 P
TBHY 11.09 1 P
TBMR 11.34 1 P
TBTN 11.24 1 P
ACON 18.9 1 P
CNGN 8.53 1 P
CRIN 14.5 1 P
CSGN 22.78 1 P
ESPN 30.07 1 P
HERN 11.22 1 P
MASN 7.26 1 P
MATN 13.37 1 P
MGAN 3.26 1 P
NANN 7.04 1 P
# 2014 04 18 06 27 60 12.130000 -86.360000 6.000000 1.000000 0.000000 0.000000 0.000000 442 
# 2014 04 18 08 28 30 12.170000 -86.340000 5.000000 1.700000 0.000000 0.000000 0.000000 443 
TBHS 12.34 1 P
TBHY 11.8 1 P
TBMR 12.01 1 P
TBTN 11.96 1 P
ACON 19.75 1 P
CNGN 9.13 1 P
CRIN 15.24 1 P
CSGN 23.62 1 P
ESPN 31.23 1 P
HERN 11.95 1 P
MASN 7.05 1 P
MATN 15.31 1 P
MGAN 2.4 1 P
NANN 6.28 1 P
# 2014 04 18 11 26 45 12.410000 -86.560000 4.000000 1.400000 0.000000 0.000000 0.000000 444 
TBHS 7.06 1 P
TBMR 6.75 1 P
TBTN 6.65 1 P
ACON 23.57 1 P
CNGN 3.69 1 P
CRIN 10.23 1 P
CSGN 19.42 1 P
ESPN 34.41 1 P
HERN 6.63 1 P
MASN 12.36 1 P
MATN 14.58 1 P
MGAN 7.87 1 P
NANN 11.81 1 P
# 2014 04 18 12 05 17 12.360000 -86.460000 6.000000 2.500000 0.000000 0.000000 0.000000 445 
TBHS 8.8 1 P
TBMR 8.51 1 P
TBTN 8.4 1 P
ACON 21.87 1 P
CNGN 5.5 1 P
CRIN 11.9 1 P
CSGN 20.77 1 P
ESPN 32.81 1 P
HERN 8.38 1 P
MASN 10.44 1 P
MATN 13.85 1 P
MGAN 5.95 1 P
NANN 9.99 1 P
# 2014 04 18 12 21 58 12.350000 -86.450000 4.000000 4.400000 0.000000 0.000000 0.000000 446 
TBHS 9.15 1 P
TBMR 8.86 1 P
TBTN 8.75 1 P
ACON 21.93 1 P
CNGN 5.84 1 P
CRIN 12.27 1 P
CSGN 21.17 1 P
ESPN 32.88 1 P
HERN 8.73 1 P
MASN 10.34 1 P
MATN 14.02 1 P
MGAN 5.81 1 P
NANN 9.89 1 P
# 2014 04 18 12 26 45 12.340000 -86.500000 0.000000 3.700000 0.000000 0.000000 0.000000 447 
TBHS 9.28 1 P
TBMR 8.96 1 P
TBTN 8.88 1 P
ACON 23.34 1 P
CNGN 5.94 1 P
CRIN 12.4 1 P
CSGN 21.45 1 P
ESPN 34.35 1 P
HERN 8.87 1 P
MASN 11.61 1 P
MATN 15.41 1 P
MGAN 7.02 1 P
NANN 11 1 P
# 2014 04 18 12 32 51 12.320000 -86.440000 4.000000 3.000000 0.000000 0.000000 0.000000 448 
TBHS 9.58 1 P
TBMR 9.27 1 P
TBTN 9.18 1 P
ACON 21.68 1 P
CNGN 6.27 1 P
CRIN 12.66 1 P
CSGN 21.5 1 P
ESPN 32.72 1 P
HERN 9.16 1 P
MASN 9.9 1 P
MATN 14.29 1 P
MGAN 5.33 1 P
NANN 9.39 1 P
# 2014 04 18 14 09 20 12.250000 -86.350000 14.000000 2.600000 0.000000 0.000000 0.000000 449 
TBHS 11.01 1 P
TBHY 10.49 1 P
TBMR 10.72 1 P
TBTN 10.64 1 P
ACON 19.38 1 P
CNGN 7.95 1 P
CRIN 13.86 1 P
CSGN 22.13 1 P
ESPN 30.58 1 P
HERN 10.63 1 P
MASN 7.76 1 P
MATN 13.78 1 P
MGAN 3.68 1 P
NANN 7.33 1 P
# 2014 04 18 14 15 09 12.350000 -86.450000 13.000000 2.300000 0.000000 0.000000 0.000000 450 
TBHS 8.85 1 P
TBHY 8.32 1 P
TBMR 8.57 1 P
TBTN 8.48 1 P
ACON 21.1 1 P
CNGN 5.76 1 P
CRIN 11.81 1 P
CSGN 20.36 1 P
ESPN 32.06 1 P
HERN 8.46 1 P
MASN 9.98 1 P
MATN 13.48 1 P
MGAN 5.73 1 P
NANN 9.55 1 P
# 2014 04 18 15 17 14 12.350000 -86.440000 1.000000 1.900000 0.000000 0.000000 0.000000 451 
TBHS 9.67 1 P
TBHY 9.1 1 P
TBMR 9.38 1 P
TBTN 9.27 1 P
ACON 22.26 1 P
CNGN 6.35 1 P
CRIN 12.8 1 P
CSGN 21.75 1 P
ESPN 33.22 1 P
HERN 9.24 1 P
MASN 10.6 1 P
MATN 14.33 1 P
MGAN 6.06 1 P
NANN 10.17 1 P
# 2014 04 18 16 51 38 12.340000 -86.450000 4.000000 2.200000 0.000000 0.000000 0.000000 452 
TBHS 9.25 1 P
TBHY 8.68 1 P
TBMR 8.95 1 P
TBTN 8.85 1 P
ACON 21.89 1 P
CNGN 5.93 1 P
CRIN 12.35 1 P
CSGN 21.24 1 P
ESPN 32.87 1 P
HERN 8.83 1 P
MASN 10.24 1 P
MATN 14.14 1 P
MGAN 5.69 1 P
NANN 9.75 1 P
# 2014 04 18 17 21 29 12.390000 -86.480000 6.000000 3.000000 0.000000 0.000000 0.000000 453 
TBHS 8.25 1 P
TBHY 7.68 1 P
TBMR 7.96 1 P
TBTN 7.84 1 P
ACON 22.25 1 P
CNGN 4.95 1 P
CRIN 11.37 1 P
CSGN 20.32 1 P
ESPN 33.1 1 P
HERN 7.82 1 P
MASN 11.01 1 P
MATN 13.72 1 P
MGAN 6.55 1 P
NANN 10.58 1 P
# 2014 04 18 17 24 00 12.400000 -86.510000 12.000000 1.900000 0.000000 0.000000 0.000000 454 
TBHS 7.63 1 P
TBHY 7.09 1 P
TBMR 7.35 1 P
TBTN 7.25 1 P
ACON 22.15 1 P
CNGN 4.53 1 P
CRIN 10.64 1 P
CSGN 19.4 1 P
ESPN 32.99 1 P
HERN 7.22 1 P
MASN 11.23 1 P
MATN 13.6 1 P
MGAN 6.96 1 P
NANN 10.78 1 P
# 2014 04 18 20 10 31 12.380000 -86.520000 7.000000 1.300000 0.000000 0.000000 0.000000 455 
TBHS 7.76 1 P
TBHY 7.2 1 P
TBMR 7.45 1 P
TBTN 7.36 1 P
ACON 22.62 1 P
CNGN 4.46 1 P
CRIN 10.86 1 P
CSGN 19.82 1 P
ESPN 33.53 1 P
HERN 7.34 1 P
MASN 11.36 1 P
MATN 14.21 1 P
MGAN 6.9 1 P
NANN 10.82 1 P
# 2014 04 18 21 31 24 12.380000 -86.470000 10.000000 2.200000 0.000000 0.000000 0.000000 456 
TBHS 8.37 1 P
TBHY 7.82 1 P
TBMR 8.09 1 P
TBTN 7.98 1 P
ACON 21.72 1 P
CNGN 5.18 1 P
CRIN 11.41 1 P
CSGN 20.16 1 P
ESPN 32.6 1 P
HERN 7.96 1 P
MASN 10.61 1 P
MATN 13.49 1 P
MGAN 6.27 1 P
NANN 10.2 1 P
# 2014 04 18 23 36 50 12.350000 -86.590000 10.000000 1.600000 0.000000 0.000000 0.000000 457 
TBHS 7.17 1 P
TBHY 6.63 1 P
TBMR 6.82 1 P
TBTN 6.8 1 P
ACON 23.14 1 P
CNGN 4.04 1 P
CRIN 10.12 1 P
CSGN 18.98 1 P
ESPN 34.16 1 P
HERN 6.79 1 P
MASN 11.86 1 P
MATN 15.11 1 P
MGAN 7.48 1 P
NANN 11.14 1 P
# 2014 04 19 01 11 29 12.380000 -86.570000 13.000000 1.100000 0.000000 0.000000 0.000000 458 
TBHS 7.06 1 P
TBHY 6.53 1 P
TBMR 6.75 1 P
TBTN 6.69 1 P
ACON 22.75 1 P
CNGN 4.03 1 P
CRIN 10 1 P
CSGN 18.76 1 P
ESPN 33.68 1 P
HERN 6.68 1 P
MASN 11.74 1 P
MATN 14.42 1 P
MGAN 7.47 1 P
NANN 11.13 1 P
# 2014 04 19 03 03 01 12.400000 -86.520000 15.000000 1.700000 0.000000 0.000000 0.000000 459 
TBHS 7.5 1 P
TBHY 6.98 1 P
TBMR 7.23 1 P
TBTN 7.13 1 P
ACON 22.05 1 P
CNGN 4.54 1 P
CRIN 10.43 1 P
CSGN 19.06 1 P
ESPN 32.9 1 P
HERN 7.11 1 P
MASN 11.26 1 P
MATN 13.58 1 P
MGAN 7.09 1 P
NANN 10.79 1 P
# 2014 04 19 04 28 33 12.370000 -86.490000 8.000000 1.900000 0.000000 0.000000 0.000000 460 
TBHS 8.23 1 P
TBHY 7.68 1 P
TBMR 7.94 1 P
TBTN 7.84 1 P
ACON 22.11 1 P
CNGN 4.97 1 P
CRIN 11.31 1 P
CSGN 20.16 1 P
ESPN 33.03 1 P
HERN 7.82 1 P
MASN 10.83 1 P
MATN 13.93 1 P
MGAN 6.4 1 P
NANN 10.34 1 P
# 2014 04 19 06 11 59 12.400000 -86.540000 5.000000 1.200000 0.000000 0.000000 0.000000 461 
TBHS 7.36 1 P
TBHY 6.79 1 P
TBMR 7.06 1 P
TBTN 6.96 1 P
ACON 23.16 1 P
CNGN 4.02 1 P
CRIN 10.51 1 P
CSGN 19.62 1 P
ESPN 34.02 1 P
HERN 6.94 1 P
MASN 11.92 1 P
MATN 14.36 1 P
MGAN 7.44 1 P
NANN 11.39 1 P
# 2014 04 19 06 40 24 12.380000 -86.530000 5.000000 1.400000 0.000000 0.000000 0.000000 462 
TBHS 7.7 1 P
TBHY 7.13 1 P
TBMR 7.39 1 P
TBTN 7.3 1 P
ACON 22.95 1 P
CNGN 4.36 1 P
CRIN 10.83 1 P
CSGN 19.89 1 P
ESPN 33.86 1 P
HERN 7.28 1 P
MASN 11.6 1 P
MATN 14.46 1 P
MGAN 7.09 1 P
NANN 11.03 1 P
# 2014 04 19 06 59 08 12.390000 -86.550000 4.000000 1.200000 0.000000 0.000000 0.000000 463 
TBHS 7.4 1 P
TBHY 6.83 1 P
TBMR 7.08 1 P
TBTN 7 0 P
ACON 23.36 1 P
CNGN 4.04 1 P
CRIN 10.54 1 P
CSGN 19.68 1 P
ESPN 34.25 1 P
HERN 6.98 1 P
MASN 12.03 1 P
MATN 14.67 1 P
MGAN 7.52 1 P
NANN 11.46 1 P
# 2014 04 19 07 06 33 12.300000 -86.470000 5.000000 1.700000 0.000000 0.000000 0.000000 464 
TBHS 9.33 1 P
TBHY 8.77 1 P
TBMR 9 1 P
TBTN 8.94 1 P
ACON 21.88 1 P
CNGN 6.02 1 P
CRIN 12.37 1 P
CSGN 21.19 1 P
ESPN 32.99 1 P
HERN 8.92 1 P
MASN 10.03 1 P
MATN 14.73 1 P
MGAN 5.44 1 P
NANN 9.39 1 P
# 2014 04 19 07 58 23 12.360000 -86.540000 8.000000 1.300000 0.000000 0.000000 0.000000 465 
TBHS 7.68 1 P
TBMR 7.36 1 P
TBTN 7.29 1 P
ACON 22.71 1 P
CNGN 4.41 1 P
CRIN 10.73 1 P
CSGN 19.65 1 P
ESPN 33.68 1 P
HERN 7.28 1 P
MASN 11.38 1 P
MATN 14.58 1 P
MGAN 6.92 1 P
NANN 10.76 1 P
# 2014 04 19 08 23 04 12.370000 -86.450000 13.000000 1.400000 0.000000 0.000000 0.000000 466 
TBHS 8.68 1 P
TBMR 8.41 1 P
TBTN 8.3 1 P
ACON 21.18 1 P
CNGN 5.6 1 P
CRIN 11.65 1 P
CSGN 20.22 1 P
ESPN 32.08 1 P
HERN 8.28 1 P
MASN 10.18 1 P
MATN 13.25 1 P
MGAN 5.97 1 P
NANN 9.8 1 P
# 2014 04 19 08 28 53 12.370000 -86.480000 9.000000 1.400000 0.000000 0.000000 0.000000 467 
TBHS 8.35 1 P
TBMR 8.06 1 P
TBTN 7.95 1 P
ACON 21.89 1 P
CNGN 5.11 1 P
CRIN 11.4 1 P
CSGN 20.2 1 P
ESPN 32.81 1 P
HERN 7.93 1 P
MASN 10.67 1 P
MATN 13.76 1 P
MGAN 6.27 1 P
NANN 10.2 1 P
# 2014 04 19 08 28 54 12.350000 -86.540000 4.000000 1.100000 0.000000 0.000000 0.000000 468 
# 2014 04 19 12 52 59 12.180000 -86.680000 40.000000 1.900000 0.000000 0.000000 0.000000 469 
TBHS 9.38 1 P
TBMR 9.08 1 P
TBTN 9.17 1 P
ACON 22.83 1 P
CNGN 7.72 1 P
CRIN 11.23 1 P
CSGN 18.53 1 P
ESPN 34.24 1 P
HERN 9.19 1 P
MASN 11.92 1 P
MATN 16.92 1 P
MGAN 8.84 1 P
NANN 10.94 1 P
# 2014 04 19 13 44 28 12.350000 -86.480000 1.000000 3.900000 0.000000 0.000000 0.000000 470 
TBHS 9.12 1 P
TBHY 8.55 1 P
TBMR 8.81 1 P
TBTN 8.72 1 P
ACON 22.78 1 P
CNGN 5.78 1 P
CRIN 12.25 1 P
CSGN 21.27 1 P
ESPN 33.75 1 P
HERN 8.7 1 P
MASN 11.12 1 P
MATN 14.75 1 P
MGAN 6.55 1 P
NANN 10.58 1 P
# 2014 04 19 14 18 03 12.380000 -86.500000 6.000000 1.700000 0.000000 0.000000 0.000000 471 
TBHS 8.06 1 P
TBHY 7.49 1 P
TBMR 7.76 1 P
TBTN 7.66 1 P
ACON 22.47 1 P
CNGN 4.74 1 P
CRIN 11.18 1 P
CSGN 20.15 1 P
ESPN 33.36 1 P
HERN 7.64 1 P
MASN 11.15 1 P
MATN 14.05 1 P
MGAN 6.67 1 P
NANN 10.66 1 P
# 2014 04 19 14 33 32 12.360000 -86.510000 5.000000 2.400000 0.000000 0.000000 0.000000 472 
TBHS 8.17 1 P
TBHY 7.6 1 P
TBMR 7.86 1 P
TBTN 7.77 1 P
ACON 22.62 1 P
CNGN 4.84 1 P
CRIN 11.28 1 P
CSGN 20.28 1 P
ESPN 33.57 1 P
HERN 7.75 1 P
MASN 11.14 1 P
MATN 14.45 1 P
MGAN 6.61 1 P
NANN 10.57 1 P
# 2014 04 19 17 40 17 12.390000 -86.520000 5.000000 1.900000 0.000000 0.000000 0.000000 473 
TBHS 7.74 1 P
TBHY 7.17 1 P
TBMR 7.43 1 P
TBTN 7.33 1 P
ACON 22.86 1 P
CNGN 4.4 1 P
CRIN 10.88 1 P
CSGN 19.94 1 P
ESPN 33.74 1 P
HERN 7.31 1 P
MASN 11.57 1 P
MATN 14.24 1 P
MGAN 7.07 1 P
NANN 11.05 1 P
# 2014 04 19 18 18 15 12.400000 -86.510000 6.000000 4.000000 0.000000 0.000000 0.000000 474 
TBHS 7.73 1 P
TBHY 7.17 1 P
TBMR 7.44 1 P
TBTN 7.33 1 P
ACON 22.68 1 P
CNGN 4.42 1 P
CRIN 10.87 1 P
CSGN 19.89 1 P
ESPN 33.51 1 P
HERN 7.31 1 P
MASN 11.48 1 P
MATN 13.94 1 P
MGAN 7.03 1 P
NANN 11.01 1 P
# 2014 04 19 18 59 08 12.180000 -86.330000 8.000000 1.300000 0.000000 0.000000 0.000000 475 
TBHS 12.18 1 P
TBHY 11.65 1 P
TBMR 11.86 1 P
TBTN 11.81 1 P
ACON 19.37 1 P
CNGN 9.02 1 P
CRIN 15.05 1 P
CSGN 23.36 1 P
ESPN 30.8 1 P
HERN 11.79 1 P
MASN 6.9 1 P
MATN 14.89 1 P
MGAN 2.42 1 P
NANN 6.23 1 P
